{
"type": "FeatureCollection",
"name": "isochrone_namwirye_30min",
"crs": { "type": "name", "properties": { "name": "urn:ogc:def:crs:OGC:1.3:CRS84" } },
"features": [
{ "type": "Feature", "properties": { "station": "namwirye", "threshold": "30min" }, "geometry": { "type": "MultiPolygon", "coordinates": [ [ [ [ 127.038174215086656, 37.478237510581884 ], [ 127.037373413844008, 37.477931820979833 ], [ 127.036538877751298, 37.477690152352118 ], [ 127.035678641978976, 37.47751483146741 ], [ 127.034800988925099, 37.477407546283871 ], [ 127.033914368533488, 37.477369329711436 ], [ 127.033027317005988, 37.477400549676048 ], [ 127.032148374687594, 37.477500905580989 ], [ 127.031286003912371, 37.477669431199139 ], [ 127.030448507597143, 37.477904503968432 ], [ 127.029643949363816, 37.478203860601582 ], [ 127.028880075956266, 37.478564618859878 ], [ 127.028164242696064, 37.478983305282775 ], [ 127.027503342692867, 37.479455888607077 ], [ 127.026903740488805, 37.479977818554957 ], [ 127.02637121077575, 37.48054406961883 ], [ 127.025910882774298, 37.481149189422773 ], [ 127.025527190810919, 37.481787351196083 ], [ 127.025223831570244, 37.48245240985505 ], [ 127.025003728435465, 37.483137961154199 ], [ 127.024869003262822, 37.483837403338299 ], [ 127.024820955864712, 37.484544000702485 ], [ 127.024860051402086, 37.48525094844895 ], [ 127.024985915810902, 37.485951438216297 ], [ 127.025197339310608, 37.48663872365028 ], [ 127.025492287964113, 37.487306185384703 ], [ 127.025867923181679, 37.487947394806113 ], [ 127.026320628983939, 37.488556175987569 ], [ 127.026846046764618, 37.489126665194263 ], [ 127.02743911721997, 37.489653367386722 ], [ 127.02809412904368, 37.490131209176283 ], [ 127.028804773918836, 37.490555587721474 ], [ 127.029564207277758, 37.490922415092868 ], [ 127.029938524811996, 37.491065310090562 ], [ 127.029871628668786, 37.491051674928336 ], [ 127.028993826218283, 37.490944345834002 ], [ 127.028107049339567, 37.490906084701521 ], [ 127.027219835739913, 37.490937259885591 ], [ 127.026340727323543, 37.491037571220474 ], [ 127.025478188022348, 37.491206052908105 ], [ 127.024640522374469, 37.491441082809466 ], [ 127.02383579563093, 37.491740398050091 ], [ 127.023071756156952, 37.492101116790067 ], [ 127.022355760872173, 37.492519765949737 ], [ 127.021694704445551, 37.492992314625084 ], [ 127.021094952924926, 37.493514212872412 ], [ 127.020562282439784, 37.49408043548992 ], [ 127.020101823566321, 37.494685530376195 ], [ 127.019718011891598, 37.495323671001081 ], [ 127.019414545253767, 37.495988712485101 ], [ 127.019194348071181, 37.496674250748747 ], [ 127.019059543106962, 37.497373684162845 ], [ 127.019011430943394, 37.498080277107405 ], [ 127.019050477366648, 37.498787224827602 ], [ 127.019176308787422, 37.499487718962534 ], [ 127.01933827771083, 37.500014288846735 ], [ 127.018795400225798, 37.500486626970527 ], [ 127.018262662385965, 37.501052838086601 ], [ 127.017802141622923, 37.501657922868915 ], [ 127.017418274120033, 37.502296054884923 ], [ 127.017114758253371, 37.502961089338321 ], [ 127.016894518915919, 37.503646622217573 ], [ 127.016759679277413, 37.504346051945546 ], [ 127.016711540254803, 37.505052642937997 ], [ 127.016750567893752, 37.505759590459022 ], [ 127.016876388786699, 37.506460086149772 ], [ 127.017087793574746, 37.507147383599218 ], [ 127.017382748503636, 37.507814863325486 ], [ 127.017758414925567, 37.508456096541778 ], [ 127.018211176562957, 37.509064907091727 ], [ 127.018736674273597, 37.50963543095726 ], [ 127.019329847985532, 37.510162172764616 ], [ 127.019984985399091, 37.510640058742929 ], [ 127.020695776988404, 37.511064485624402 ], [ 127.02145537677292, 37.511431365013308 ], [ 127.02225646827381, 37.511737162795413 ], [ 127.02309133501835, 37.511978933206649 ], [ 127.023951934912631, 37.512154347231835 ], [ 127.024829977762991, 37.512261715058763 ], [ 127.025717005197734, 37.512300002370438 ], [ 127.026604472215908, 37.512268840317901 ], [ 127.027483829573981, 37.51216852907708 ], [ 127.028346606214271, 37.512000034955356 ], [ 127.029184490936544, 37.511764981075615 ], [ 127.029989412523832, 37.5114656317281 ], [ 127.030753617546708, 37.511104870541217 ], [ 127.031469745094313, 37.510686172682547 ], [ 127.03213089771009, 37.510213571358776 ], [ 127.032730707847094, 37.509691618938383 ], [ 127.033263399201971, 37.509125343073045 ], [ 127.033723842336144, 37.508520198241413 ], [ 127.034107604049538, 37.507882013183725 ], [ 127.03421993539834, 37.507635763486654 ], [ 127.034558825796893, 37.507704809445606 ], [ 127.035412544535191, 37.507809130443761 ], [ 127.035389904170856, 37.507846782459495 ], [ 127.035086524239276, 37.508511863393224 ], [ 127.034866432040175, 37.509197430139317 ], [ 127.034731749327733, 37.509896880793733 ], [ 127.034683775508697, 37.510603479569745 ], [ 127.03472297503869, 37.511310421655573 ], [ 127.034826824744712, 37.511887768625499 ], [ 127.034449187025132, 37.512216393482902 ], [ 127.033916482356261, 37.512782674312426 ], [ 127.033456014218956, 37.513387819292916 ], [ 127.033072218291721, 37.514026001411999 ], [ 127.03276879226344, 37.514691075390644 ], [ 127.032548660163911, 37.515376636836265 ], [ 127.032413944132173, 37.516076083896053 ], [ 127.032365943896494, 37.516782680818132 ], [ 127.03240512416761, 37.517489622808661 ], [ 127.0325311100693, 37.518190101561153 ], [ 127.032742690654487, 37.518877370826708 ], [ 127.033037830476431, 37.519544811393963 ], [ 127.033413689106965, 37.520185994852255 ], [ 127.033866648417089, 37.520794745523574 ], [ 127.034392347360338, 37.5213651999657 ], [ 127.034834485973576, 37.521757630119737 ], [ 127.034188165824233, 37.522219582521451 ], [ 127.03358826455225, 37.522741540630662 ], [ 127.033055477747126, 37.5233078160215 ], [ 127.032594937107376, 37.523912956085113 ], [ 127.032211079010324, 37.524551133856825 ], [ 127.03190760174428, 37.525216204099813 ], [ 127.031687429833426, 37.525901762457693 ], [ 127.031552685801245, 37.526601207107646 ], [ 127.031504669646935, 37.527307802321154 ], [ 127.031543846235706, 37.528014743320909 ], [ 127.031669840728156, 37.528715221809989 ], [ 127.031881442095695, 37.52940249154198 ], [ 127.032176614692645, 37.530069933300894 ], [ 127.032552517776182, 37.530711118664392 ], [ 127.03300553279017, 37.531319871935857 ], [ 127.033531298152297, 37.531890329647787 ], [ 127.034124751212502, 37.532416997062434 ], [ 127.034780176979652, 37.532894801124577 ], [ 127.03549126314924, 37.53331913935456 ], [ 127.036251160901656, 37.533685924209962 ], [ 127.037052550885889, 37.533991622486589 ], [ 127.037887713751971, 37.534233289378598 ], [ 127.038748604551046, 37.534408596867884 ], [ 127.039626930284896, 37.534515856168589 ], [ 127.040514229854523, 37.534554034009453 ], [ 127.041401955635237, 37.534522762596509 ], [ 127.042281555888977, 37.53442234315979 ], [ 127.043144557216564, 37.534253743049661 ], [ 127.043982646252232, 37.534018586410859 ], [ 127.044787749810098, 37.533719138524361 ], [ 127.045552112707611, 37.533358283968703 ], [ 127.046268372513453, 37.53293949881175 ], [ 127.046929630497871, 37.532466817101898 ], [ 127.047529518100333, 37.531944791982674 ], [ 127.048062258273006, 37.53137845180656 ], [ 127.048522721109393, 37.530773251672102 ], [ 127.048906473222146, 37.530135020852448 ], [ 127.049209820395873, 37.529469906623007 ], [ 127.049429843105756, 37.528784315030563 ], [ 127.049564424562007, 37.528084849175109 ], [ 127.049612271013189, 37.527378245600083 ], [ 127.04957292411558, 37.526671309404108 ], [ 127.049446765253577, 37.525970848699515 ], [ 127.049235011772311, 37.525283609049254 ], [ 127.048939705163164, 37.524616208513315 ], [ 127.048563691318904, 37.523975073929833 ], [ 127.048110593052229, 37.523366379043992 ], [ 127.047584775144713, 37.522795985079583 ], [ 127.047142563182987, 37.522403602248353 ], [ 127.047788805791896, 37.521941578454815 ], [ 127.048388602417205, 37.521419547453654 ], [ 127.048921260472639, 37.520853201864377 ], [ 127.049381650842221, 37.520247996837298 ], [ 127.049740121287854, 37.51965171260882 ], [ 127.049822479158394, 37.519683123483482 ], [ 127.050657525114374, 37.519924699883738 ], [ 127.051518282670756, 37.520099913835288 ], [ 127.052396460113414, 37.520207077453939 ], [ 127.053283597772719, 37.520245158390757 ], [ 127.054171149584889, 37.520213789785757 ], [ 127.054690506587733, 37.520154428848528 ], [ 127.055108664477871, 37.520403896411779 ], [ 127.055868529210926, 37.520770555615577 ], [ 127.056669862982517, 37.521076121065747 ], [ 127.057504946983528, 37.521317649236643 ], [ 127.058365737024602, 37.521492813447246 ], [ 127.059243941078336, 37.521599926292765 ], [ 127.060131099218495, 37.521637955913519 ], [ 127.061018665183767, 37.521606535944152 ], [ 127.061898088776928, 37.521505969046416 ], [ 127.062760898302201, 37.521337223991758 ], [ 127.063598782243218, 37.521101926321542 ], [ 127.064403669391695, 37.520802342675559 ], [ 127.065167806651672, 37.520441358940147 ], [ 127.065883833767259, 37.520022452427341 ], [ 127.066544854251987, 37.51954965835418 ], [ 127.067144501834548, 37.519027530945991 ], [ 127.067677001780453, 37.518461099539792 ], [ 127.068137226498081, 37.517855820112004 ], [ 127.068520744894286, 37.517217522698481 ], [ 127.068618566156502, 37.517002864890124 ], [ 127.068810742265697, 37.517117484479186 ], [ 127.069570641747347, 37.517484055943086 ], [ 127.070371997295638, 37.51778952872646 ], [ 127.071207089890891, 37.518030960196654 ], [ 127.072067875260515, 37.518206024604659 ], [ 127.072090414784228, 37.518208771231599 ], [ 127.072601741654751, 37.518403672149127 ], [ 127.073436848412257, 37.518645087915168 ], [ 127.074297646189478, 37.51882013612969 ], [ 127.07517584288405, 37.518927130505794 ], [ 127.076062978640394, 37.518965040325646 ], [ 127.07695050741296, 37.518933500378502 ], [ 127.077829879363193, 37.518832814482472 ], [ 127.07869262329335, 37.518663952555841 ], [ 127.079530428319813, 37.518428541266267 ], [ 127.080335223995505, 37.518128848348383 ], [ 127.081082767119796, 37.517775554581078 ], [ 127.081481043791086, 37.517967623947456 ], [ 127.082282453816987, 37.518273016220874 ], [ 127.083117590963184, 37.518514363722772 ], [ 127.083978410527209, 37.518689341513223 ], [ 127.084856620196405, 37.518796263984044 ], [ 127.085743759989995, 37.5188341011104 ], [ 127.086631283823479, 37.518802488382178 ], [ 127.087510641905936, 37.518701730318924 ], [ 127.08837336317346, 37.518532797534462 ], [ 127.08921113696114, 37.518297317379336 ], [ 127.090015893123308, 37.517997558251821 ], [ 127.090779879827608, 37.517636407729078 ], [ 127.091495738270439, 37.517217344730007 ], [ 127.092156573592149, 37.51674440597904 ], [ 127.092339541850009, 37.516584999022676 ], [ 127.092412017931309, 37.516708439912328 ], [ 127.092865437953762, 37.517316967446121 ], [ 127.093391564417502, 37.517887162183122 ], [ 127.093985331188776, 37.51841353191768 ], [ 127.094641020249355, 37.518891006461445 ], [ 127.094975059659888, 37.519090117308046 ], [ 127.094913676765572, 37.519281800645921 ], [ 127.094779534812488, 37.519981321845208 ], [ 127.09473211957706, 37.52068794717745 ], [ 127.094771890137352, 37.521394871571736 ], [ 127.094898465932218, 37.522095286887541 ], [ 127.095110630332442, 37.522782447483522 ], [ 127.095406342266443, 37.523449735191676 ], [ 127.095782755792911, 37.524090723070657 ], [ 127.096236247434589, 37.524699237323617 ], [ 127.096762451013319, 37.525269416783395 ], [ 127.097356299652589, 37.525795769391202 ], [ 127.098012074545522, 37.526273225123347 ], [ 127.098723460019301, 37.526697184855365 ], [ 127.099483604366156, 37.527063564691126 ], [ 127.100285185855199, 37.527368835328907 ], [ 127.101120483287843, 37.52761005608361 ], [ 127.101981450416005, 37.527784903236551 ], [ 127.102859793504081, 37.527891692438374 ], [ 127.103747051284884, 37.527929394948572 ], [ 127.104634676536278, 37.527897647554447 ], [ 127.105514118489666, 37.527796756073457 ], [ 127.106376905272882, 37.527627692405375 ], [ 127.10721472558987, 37.527392085162283 ], [ 127.108019508847107, 37.527092203967342 ], [ 127.10878350295188, 37.526730937574193 ], [ 127.109499349030344, 37.526311766018424 ], [ 127.110160152343227, 37.525838727070493 ], [ 127.110759548714896, 37.525316377314503 ], [ 127.111148858368651, 37.524901896859866 ], [ 127.111941701829082, 37.524998231894834 ], [ 127.112828930527499, 37.525035866026833 ], [ 127.113716518236956, 37.52500405014559 ], [ 127.114595914550819, 37.524903090728664 ], [ 127.114727729937883, 37.524877250079392 ], [ 127.114147023937463, 37.525292997617512 ], [ 127.11354765122276, 37.525815364700719 ], [ 127.113015443435145, 37.526382003903151 ], [ 127.112555526704497, 37.526987459111069 ], [ 127.112172331406569, 37.527625900322846 ], [ 127.111869549452791, 37.528291179761844 ], [ 127.111650098676449, 37.528976891053695 ], [ 127.111516094660175, 37.529676430898839 ], [ 127.111468830279051, 37.530383062647715 ], [ 127.111508763159605, 37.531089981166772 ], [ 127.111635511178577, 37.53179037837107 ], [ 127.111847856048797, 37.532477508792695 ], [ 127.112143754960925, 37.533144754553277 ], [ 127.11252036017288, 37.533785689114481 ], [ 127.11297404636089, 37.534394139192081 ], [ 127.11350044547234, 37.534964244236221 ], [ 127.11409448874646, 37.53549051290414 ], [ 127.114588212368133, 37.535849808583514 ], [ 127.11456708371189, 37.535896231814974 ], [ 127.11434763469363, 37.536581947249751 ], [ 127.11421364161518, 37.537281489319319 ], [ 127.114166397247303, 37.537988121352605 ], [ 127.11420635902472, 37.538695038213206 ], [ 127.114333144546791, 37.539395431831977 ], [ 127.114545535165917, 37.540082556775332 ], [ 127.114841487632987, 37.540749795217359 ], [ 127.11521815369062, 37.541390720689961 ], [ 127.115671907429515, 37.541999159996124 ], [ 127.11619838014667, 37.542569252689418 ], [ 127.116792502372547, 37.543095507545722 ], [ 127.117448552663831, 37.543572855482054 ], [ 127.117882009579048, 37.543831010234001 ], [ 127.118191468151338, 37.544056168764151 ], [ 127.118903136996337, 37.544480007229843 ], [ 127.119663560974573, 37.544846257613578 ], [ 127.120465415659396, 37.545151391860273 ], [ 127.120860472707136, 37.545265375839449 ], [ 127.120548617944209, 37.545537130279904 ], [ 127.120016321385805, 37.546103798662337 ], [ 127.119556338498356, 37.546709278758726 ], [ 127.119173100296365, 37.547347740328156 ], [ 127.118870299106604, 37.54801303539827 ], [ 127.118650852949813, 37.548698757444249 ], [ 127.118516877366559, 37.549398303062993 ], [ 127.118469664960642, 37.550104935549172 ], [ 127.118509672860426, 37.550811849761793 ], [ 127.118636518222559, 37.551512237656958 ], [ 127.118848981824513, 37.552199353855841 ], [ 127.119145019715333, 37.552866580616332 ], [ 127.11952178281588, 37.553507491582373 ], [ 127.119975644282917, 37.554115913696165 ], [ 127.120502234376332, 37.554685986676397 ], [ 127.121096482496171, 37.555212219488276 ], [ 127.121752665986477, 37.555689543260705 ], [ 127.122464465236789, 37.556113360139122 ], [ 127.123225024551218, 37.556479587602567 ], [ 127.124027018198873, 37.55678469781639 ], [ 127.124862721007773, 37.557025751640545 ], [ 127.125724082821634, 37.557200426964322 ], [ 127.126602806099598, 37.557307041093864 ], [ 127.127490425908874, 37.557344566975637 ], [ 127.128378391537026, 37.557312643099188 ], [ 127.129258148934056, 37.557211576983029 ], [ 127.129283818839923, 37.557206543635814 ], [ 127.129279341124871, 37.557273699658836 ], [ 127.129319454423893, 37.557980609918516 ], [ 127.129446412637861, 37.558680985957686 ], [ 127.129658995457973, 37.559368082511021 ], [ 127.129955157785389, 37.560035282024998 ], [ 127.130332049342684, 37.560676158405293 ], [ 127.130786042049237, 37.561284538926614 ], [ 127.131312764900528, 37.561854563707691 ], [ 127.131907146017326, 37.562380742177503 ], [ 127.132563461461913, 37.56285800598797 ], [ 127.133275390351841, 37.563281757861809 ], [ 127.134036075741619, 37.563647915904006 ], [ 127.134838190684718, 37.563952952948569 ], [ 127.135674008839672, 37.564193930560243 ], [ 127.1365354789381, 37.564368527362625 ], [ 127.137414302394916, 37.564475061418449 ], [ 127.138302013311474, 37.564512506445851 ], [ 127.139190060096894, 37.564480501713632 ], [ 127.140069887918912, 37.56437935551962 ], [ 127.140933021185788, 37.564210042218825 ], [ 127.141771145262297, 37.563974192829725 ], [ 127.142576186628119, 37.563674079309813 ], [ 127.14334039070458, 37.563312592652366 ], [ 127.144056396596397, 37.562893215016317 ], [ 127.14471730802714, 37.562419986158581 ], [ 127.145316759782744, 37.561897464493669 ], [ 127.145848979022617, 37.561330683156669 ], [ 127.146308840867192, 37.560725101494157 ], [ 127.146691917727139, 37.56008655245207 ], [ 127.146994521899785, 37.559421186367842 ], [ 127.147213741024714, 37.558735411710231 ], [ 127.147347466058832, 37.558035833337932 ], [ 127.147350045239961, 37.557997010686442 ], [ 127.147462436025592, 37.557965374595767 ], [ 127.148267390029105, 37.557665221518818 ], [ 127.149031505300002, 37.557303697205008 ], [ 127.149747421799148, 37.556884284175872 ], [ 127.150408244111702, 37.556411022529126 ], [ 127.151007607882519, 37.555888470994844 ], [ 127.15153974111881, 37.555321662995539 ], [ 127.151999519769632, 37.554716058134289 ], [ 127.152382517046959, 37.554077489580081 ], [ 127.15268504601454, 37.553412107857916 ], [ 127.152904195036029, 37.552726321586761 ], [ 127.153037855743079, 37.55202673573681 ], [ 127.153084743257352, 37.55132008800183 ], [ 127.153044408474287, 37.550613183900047 ], [ 127.15291724229418, 37.549912831228845 ], [ 127.152704471763158, 37.54922577450499 ], [ 127.152408148165335, 37.548558630021219 ], [ 127.152031127183662, 37.547917822144711 ], [ 127.151577041324288, 37.54730952146992 ], [ 127.151575188069856, 37.547307516394852 ], [ 127.151716345692165, 37.546865775668515 ], [ 127.15185000659325, 37.546166190471538 ], [ 127.151896901209881, 37.545459542544158 ], [ 127.151856580368374, 37.544752637406489 ], [ 127.15172943483401, 37.544052282866005 ], [ 127.151516691453494, 37.543365223457549 ], [ 127.151220401248906, 37.542698075499906 ], [ 127.150843419581037, 37.542057263393872 ], [ 127.150389378577117, 37.54144895777484 ], [ 127.149862652090192, 37.540879016114438 ], [ 127.149268313531024, 37.54035292634228 ], [ 127.148716533054539, 37.539951702194529 ], [ 127.14891636488467, 37.539326359644477 ], [ 127.149050037904189, 37.538626776787119 ], [ 127.149096953650684, 37.537920129178346 ], [ 127.149056662746034, 37.537213222335311 ], [ 127.148929555666328, 37.536512864082106 ], [ 127.148726925117458, 37.535858315783393 ], [ 127.14912011456893, 37.535844105212185 ], [ 127.149999592701931, 37.535742882760189 ], [ 127.150862373403911, 37.535573494268199 ], [ 127.151019330055789, 37.535529294683833 ], [ 127.15107768807394, 37.535517836993087 ], [ 127.151915458818266, 37.5352819126675 ], [ 127.152720150607578, 37.534981726767647 ], [ 127.153484012232738, 37.534620170983494 ], [ 127.154199686099048, 37.534200728139034 ], [ 127.154860279129608, 37.533727438618449 ], [ 127.155459429178137, 37.533204861419506 ], [ 127.155991366310261, 37.532638030211018 ], [ 127.156450968363274, 37.532032404818807 ], [ 127.156833810249026, 37.531393818608727 ], [ 127.157136206526346, 37.530728422275054 ], [ 127.157355246834911, 37.530042624576765 ], [ 127.157488823851182, 37.529343030593495 ], [ 127.157535653500275, 37.528636378096877 ], [ 127.157495287232223, 37.527929472650669 ], [ 127.157368116247696, 37.527229122065037 ], [ 127.157155367636392, 37.526542070836605 ], [ 127.15685909246865, 37.525874935205373 ], [ 127.156482145958591, 37.525234139453552 ], [ 127.15602815989304, 37.524625854059288 ], [ 127.155501507594551, 37.524055936299781 ], [ 127.15490726175824, 37.523529873874985 ], [ 127.15425114557047, 37.523052732093369 ], [ 127.153539477580765, 37.522629105127074 ], [ 127.152779110859029, 37.522263071804616 ], [ 127.15197736702261, 37.521958156365258 ], [ 127.151141965768872, 37.521717294551742 ], [ 127.150280950589035, 37.52154280536665 ], [ 127.149402611377212, 37.521436368763297 ], [ 127.148515404676914, 37.521399009484959 ], [ 127.147993272123784, 37.521417881521906 ], [ 127.148163882962308, 37.521042527627799 ], [ 127.148382976251, 37.520356745716008 ], [ 127.148516618984345, 37.519657161067656 ], [ 127.148563526453216, 37.518950511364871 ], [ 127.148523249356899, 37.518243602144935 ], [ 127.148396178036208, 37.517543241254906 ], [ 127.148183538620117, 37.516856173291252 ], [ 127.147887381126708, 37.516189014655694 ], [ 127.147510559636515, 37.51554818985263 ], [ 127.147056704732208, 37.514939869640543 ], [ 127.146530188473406, 37.514369911632528 ], [ 127.145936082245569, 37.513843803916579 ], [ 127.145280107891253, 37.513366612237753 ], [ 127.14456858259507, 37.512942931249036 ], [ 127.143808358053789, 37.512576840299396 ], [ 127.143006754516918, 37.512271864183127 ], [ 127.142171490331961, 37.512030939227266 ], [ 127.141310607671599, 37.51185638504235 ], [ 127.140432395155145, 37.511749882207354 ], [ 127.139545308107387, 37.511712456103091 ], [ 127.138657887218926, 37.511744467048572 ], [ 127.138345994255104, 37.511780346354932 ], [ 127.138274772189334, 37.511703230348132 ], [ 127.137680745234789, 37.51117708128227 ], [ 127.137024847015695, 37.510699843936294 ], [ 127.136313393984267, 37.510276113403016 ], [ 127.135553237142162, 37.509909969508548 ], [ 127.134973814255048, 37.509689466943463 ], [ 127.135034304465577, 37.509373073858036 ], [ 127.135081331777641, 37.50866642890886 ], [ 127.135041186610948, 37.50795951455315 ], [ 127.13492373453947, 37.507311429295179 ], [ 127.135399520150926, 37.506896477677088 ], [ 127.135931419931509, 37.506329734106338 ], [ 127.13639102040429, 37.505724184078765 ], [ 127.136773896493096, 37.505085660234144 ], [ 127.13680550815576, 37.505016123272014 ], [ 127.136809024563632, 37.505015718767098 ], [ 127.137671479990189, 37.504846424070493 ], [ 127.138508948523295, 37.504610592056899 ], [ 127.139313362961431, 37.504310494514975 ], [ 127.140076974767879, 37.503949022282434 ], [ 127.14079242875448, 37.503529657377335 ], [ 127.141452833961807, 37.50305643943198 ], [ 127.142051830051486, 37.502533926753699 ], [ 127.142583648570309, 37.501967152388936 ], [ 127.143043168495538, 37.501361575615256 ], [ 127.143425965527072, 37.500723029329656 ], [ 127.143511699069549, 37.50053438581326 ], [ 127.143733351819307, 37.500543731722559 ], [ 127.144620638233164, 37.500511681892483 ], [ 127.145499707208231, 37.5004104902549 ], [ 127.146362090468656, 37.50024113160211 ], [ 127.146554641593823, 37.500186890284844 ], [ 127.147059286794516, 37.500554052258948 ], [ 127.147770709271597, 37.500977718606585 ], [ 127.14853083620342, 37.501343784274347 ], [ 127.149332346023996, 37.501648722988158 ], [ 127.150167518223242, 37.501889597261943 ], [ 127.151028307758452, 37.502064086716537 ], [ 127.151906422604782, 37.502170510450227 ], [ 127.152793403694702, 37.502207843245074 ], [ 127.153680706473352, 37.502175725451735 ], [ 127.154559783281243, 37.502074466457508 ], [ 127.155422165767092, 37.501905041703871 ], [ 127.156259546533406, 37.501669083282394 ], [ 127.157063859225161, 37.501368864199861 ], [ 127.157827356287143, 37.501007276465003 ], [ 127.158542683637904, 37.500587803208639 ], [ 127.159202951539314, 37.500114485106735 ], [ 127.159801800977107, 37.499591881431215 ], [ 127.160333464912057, 37.499025026104668 ], [ 127.160792823811732, 37.498419379183979 ], [ 127.161175454928141, 37.497780774241171 ], [ 127.161477674847745, 37.497115362149884 ], [ 127.161696574905733, 37.496429551819887 ], [ 127.161830049125925, 37.495729948451711 ], [ 127.161876814419642, 37.495023289906761 ], [ 127.161836422852673, 37.494316381806669 ], [ 127.161709265865227, 37.493616031987067 ], [ 127.161496570408147, 37.492928984937279 ], [ 127.161200387036061, 37.49226185685739 ], [ 127.16082357007565, 37.491621071957447 ], [ 127.160369750063097, 37.491012800611848 ], [ 127.159843298719466, 37.490442899963398 ], [ 127.159249286802961, 37.489916857548316 ], [ 127.158593435246274, 37.489439738483505 ], [ 127.157882060050369, 37.489016136723535 ], [ 127.157122011466043, 37.488650130855376 ], [ 127.156320608048446, 37.488345244855033 ], [ 127.155485566218644, 37.488104414182793 ], [ 127.154624926009333, 37.487929957542285 ], [ 127.153746973706774, 37.487823554574156 ], [ 127.152860162132129, 37.487786229698408 ], [ 127.151973029325859, 37.48781834225997 ], [ 127.15109411641545, 37.487919583072646 ], [ 127.150231885453749, 37.488088977393645 ], [ 127.150039368067027, 37.488143224986402 ], [ 127.149534791191215, 37.487776075319886 ], [ 127.148823483282797, 37.487352419233204 ], [ 127.148063496150371, 37.486986355294178 ], [ 127.147262147758127, 37.486681408037882 ], [ 127.146427153998047, 37.486440513514268 ], [ 127.145566554440578, 37.486265991041527 ], [ 127.144688634981122, 37.486159520893899 ], [ 127.14380184812498, 37.486122128137843 ], [ 127.142914731674793, 37.486154172771606 ], [ 127.142035826600747, 37.486255346262588 ], [ 127.141173594880144, 37.486424674515874 ], [ 127.140336338094556, 37.486660527245206 ], [ 127.139532117564869, 37.4869606336568 ], [ 127.13876867679015, 37.48732210429538 ], [ 127.138053366934301, 37.487741458843047 ], [ 127.137393076076023, 37.488214659604331 ], [ 127.136794162901595, 37.488737150356101 ], [ 127.136262395477758, 37.489303900189732 ], [ 127.13580289569434, 37.489909451924433 ], [ 127.135420089911591, 37.490547974627205 ], [ 127.13533434768695, 37.490736612543529 ], [ 127.135112725087225, 37.490727251017347 ], [ 127.134225550988418, 37.490759230074907 ], [ 127.133346580724179, 37.490860338498976 ], [ 127.132484276898793, 37.491029602820809 ], [ 127.131646941787409, 37.491265393369517 ], [ 127.131450360284674, 37.491338729038112 ], [ 127.131400930688997, 37.491285186151813 ], [ 127.130807112797626, 37.490759001814638 ], [ 127.130151436138689, 37.490281725835239 ], [ 127.129834945438915, 37.490093149949971 ], [ 127.129894675874965, 37.490029500438787 ], [ 127.13035422390432, 37.489423971953755 ], [ 127.130737066855048, 37.488785465743014 ], [ 127.131039519270558, 37.488120131730142 ], [ 127.131258670244236, 37.487434378074063 ], [ 127.131392411381043, 37.486734809430864 ], [ 127.13143945701988, 37.486028163329081 ], [ 127.131399356525179, 37.485321245272175 ], [ 127.131272498533193, 37.484620863193356 ], [ 127.131257689451985, 37.484572955182742 ], [ 127.131931329198963, 37.484178072823013 ], [ 127.132591618514013, 37.483704902257259 ], [ 127.133190520315722, 37.483182432306513 ], [ 127.133722267057777, 37.482615695605141 ], [ 127.134181738407321, 37.482010151067428 ], [ 127.134564510530183, 37.4813716312796 ], [ 127.134866898651566, 37.480706286295685 ], [ 127.135085992483653, 37.480020524379945 ], [ 127.135219684181109, 37.479320950267677 ], [ 127.135266688558147, 37.478614301539814 ], [ 127.135226555375795, 37.477907383724862 ], [ 127.135099673584151, 37.477207004753517 ], [ 127.134887267482554, 37.47651990939746 ], [ 127.134591384838401, 37.475852714323587 ], [ 127.134214877082229, 37.475211844388646 ], [ 127.13410930083765, 37.475070215769527 ], [ 127.134271036276971, 37.474897816360077 ], [ 127.134730455445393, 37.474292268623913 ], [ 127.135113183004663, 37.473653745991605 ], [ 127.13541553460864, 37.472988398544338 ], [ 127.135634600320458, 37.472302634569921 ], [ 127.135768272564817, 37.471603058823312 ], [ 127.135815266342419, 37.470896408901091 ], [ 127.135775131515416, 37.470189490343166 ], [ 127.135648257048814, 37.46948911108742 ], [ 127.135453467423901, 37.468858954370511 ], [ 127.136198276438051, 37.469142544722338 ], [ 127.137033044778605, 37.469383511063235 ], [ 127.137893430718165, 37.469558095078149 ], [ 127.13877114612275, 37.469664614954624 ], [ 127.139657735775799, 37.469702044548413 ], [ 127.140544658896289, 37.469670023277374 ], [ 127.141423371484876, 37.469568859598397 ], [ 127.142285408701312, 37.469399528033982 ], [ 127.143122466476157, 37.469163659777045 ], [ 127.143926481567277, 37.468863526964768 ], [ 127.14468970928705, 37.468502020773698 ], [ 127.145404798148746, 37.468082623548 ], [ 127.146064860710965, 37.467609375230111 ], [ 127.146663539936114, 37.467086834418666 ], [ 127.147195070422626, 37.466520034429777 ], [ 127.147654333920954, 37.465914434786526 ], [ 127.148036908598883, 37.465275868604955 ], [ 127.14833911158297, 37.464610486384998 ], [ 127.148540074756781, 37.463980956875545 ], [ 127.149069425209746, 37.464045155689618 ], [ 127.149955954279108, 37.464082507739782 ], [ 127.150842807220144, 37.464050408782612 ], [ 127.15172144071019, 37.46394916802376 ], [ 127.152583390671666, 37.463779760728521 ], [ 127.153420353876513, 37.463543818819602 ], [ 127.154224267994493, 37.463243615143767 ], [ 127.154987389311657, 37.46288204156027 ], [ 127.155702367367127, 37.462462581062375 ], [ 127.156362315787831, 37.461989274201883 ], [ 127.156960878636497, 37.461466680141086 ], [ 127.157492291633204, 37.460899832708648 ], [ 127.157951437660699, 37.460294191884238 ], [ 127.158333896018618, 37.459655591180031 ], [ 127.158566920777361, 37.459142309861186 ], [ 127.159113583554316, 37.459208564933093 ], [ 127.160000061125103, 37.459245841404176 ], [ 127.160886853219637, 37.459213666738592 ], [ 127.16176541710189, 37.4591123508716 ], [ 127.162627289365531, 37.458942869792402 ], [ 127.163464167531714, 37.458706856134611 ], [ 127.16426799009021, 37.458406583436357 ], [ 127.165031014209958, 37.458044944221847 ], [ 127.165745890367305, 37.457625422116521 ], [ 127.166405733171601, 37.457152058265478 ], [ 127.167004187703753, 37.45662941237979 ], [ 127.167535490727914, 37.456062518786993 ], [ 127.167994526186646, 37.455456837910951 ], [ 127.168376874445059, 37.454818203649197 ], [ 127.168678854811006, 37.454152767156287 ], [ 127.168897560923128, 37.453466937575733 ], [ 127.169030888668843, 37.452767320292367 ], [ 127.169077556365309, 37.452060653300798 ], [ 127.169037117013133, 37.451353742303425 ], [ 127.168909962507485, 37.450653395163528 ], [ 127.168697319770104, 37.449966356344667 ], [ 127.168401238843003, 37.449299241967992 ], [ 127.168024573061686, 37.448658476112222 ], [ 127.167570951502569, 37.44805022896923 ], [ 127.167044743972397, 37.447480357449862 ], [ 127.166451018879073, 37.446954348811161 ], [ 127.165795494391745, 37.446477267846156 ], [ 127.16561692121843, 37.446370890038295 ], [ 127.165721728270725, 37.44582100613826 ], [ 127.165768422273985, 37.445114339751647 ], [ 127.16572801731057, 37.444407426959003 ], [ 127.165600904943659, 37.443707075641072 ], [ 127.165388311688446, 37.443020030301895 ], [ 127.165092287109744, 37.442352907125724 ], [ 127.164715684000015, 37.441712130276308 ], [ 127.16426213083183, 37.441103870051663 ], [ 127.163735996753076, 37.440533983488983 ], [ 127.163142349464394, 37.440007957990431 ], [ 127.16248690638588, 37.439530858511688 ], [ 127.161775979584817, 37.439107278820458 ], [ 127.16101641499499, 37.438741297292921 ], [ 127.160215526512857, 37.438436437672316 ], [ 127.159381025603949, 37.438195635166394 ], [ 127.158520947095937, 37.438021208208774 ], [ 127.15764357187075, 37.437914836155286 ], [ 127.156757347197598, 37.437877543128891 ], [ 127.155870805470755, 37.437909688168268 ], [ 127.155817913512919, 37.437915786979794 ], [ 127.155594229548626, 37.437535078203865 ], [ 127.155140775427682, 37.436926783039652 ], [ 127.154614739830635, 37.436356855961634 ], [ 127.154021189510374, 37.435830784762452 ], [ 127.153365840953924, 37.435353634838116 ], [ 127.152655005319204, 37.434930000442272 ], [ 127.151895527663015, 37.434563960477881 ], [ 127.151094721045666, 37.434259039250882 ], [ 127.150260296145206, 37.434018172562133 ], [ 127.14940028705827, 37.433843679463052 ], [ 127.148568517908899, 37.433742765703052 ], [ 127.148395193368046, 37.43351020619621 ], [ 127.147869232864664, 37.432940249149979 ], [ 127.147275756816114, 37.432414144151764 ], [ 127.146620480994798, 37.431936956923217 ], [ 127.145909715858778, 37.431513282077326 ], [ 127.145150305786728, 37.43114719890665 ], [ 127.144349563188811, 37.430842232133145 ], [ 127.143515198127275, 37.430601317996114 ], [ 127.142655244123262, 37.430426776003806 ], [ 127.141777980861193, 37.430320286619192 ], [ 127.140891854533351, 37.430282875094441 ], [ 127.140005396587938, 37.430314901608583 ], [ 127.13912714166004, 37.4304160578032 ], [ 127.138265545472095, 37.430585369749217 ], [ 127.13787313907936, 37.430695984498158 ], [ 127.137730063399431, 37.430232938446345 ], [ 127.137434334323203, 37.429565746087427 ], [ 127.137058030909017, 37.428924881281112 ], [ 127.136604778744243, 37.428316515173847 ], [ 127.136078944079614, 37.427746505823634 ], [ 127.13548559173428, 37.427220341816046 ], [ 127.134830436290315, 37.426743089441288 ], [ 127.134119787047752, 37.42631934393988 ], [ 127.13336048727038, 37.425953185284797 ], [ 127.132559848307395, 37.425648138924821 ], [ 127.13172557922438, 37.425407141865428 ], [ 127.130865712619268, 37.425232514413075 ], [ 127.129988527335954, 37.425125937853274 ], [ 127.129102468816598, 37.425088438277164 ], [ 127.12821606785721, 37.425120376711114 ], [ 127.127337858544536, 37.42522144564429 ], [ 127.126476296162039, 37.425390671987323 ], [ 127.125639675851119, 37.425626426433695 ], [ 127.124836052807936, 37.425926439134145 ], [ 127.124073164781109, 37.426287821533727 ], [ 127.123358357613583, 37.426707094162055 ], [ 127.122698514543757, 37.427180220110287 ], [ 127.122099989944886, 37.427702643873609 ], [ 127.121568548139464, 37.428269335186442 ], [ 127.121109307877987, 37.428874837429795 ], [ 127.120726693016735, 37.429513320145759 ], [ 127.120424389870408, 37.430178635155066 ], [ 127.120205311652526, 37.430864375738146 ], [ 127.120071570347733, 37.431563938311342 ], [ 127.120024456290039, 37.432270586004726 ], [ 127.120064425646461, 37.432977513530318 ], [ 127.120191095930593, 37.433677912716327 ], [ 127.120403249592144, 37.43436503807623 ], [ 127.120698845652385, 37.435032271781559 ], [ 127.12079815031025, 37.435201456864903 ], [ 127.120304370707274, 37.435727919172841 ], [ 127.119845074214226, 37.436333415433374 ], [ 127.119462410132741, 37.436971892982726 ], [ 127.119160065252046, 37.437637203691622 ], [ 127.118940953188158, 37.438322940882152 ], [ 127.11880718625244, 37.4390225010035 ], [ 127.118760055026542, 37.439729147209484 ], [ 127.118800015843718, 37.440436074226575 ], [ 127.118926686300654, 37.441136473887894 ], [ 127.11913884884639, 37.441823600702357 ], [ 127.119434462417416, 37.442490836827439 ], [ 127.119810682010581, 37.44313175581928 ], [ 127.120263886008246, 37.443740184545774 ], [ 127.120292428029529, 37.443771128929249 ], [ 127.119722884190537, 37.444268118883315 ], [ 127.119191306323359, 37.44483479717524 ], [ 127.118731944596632, 37.445440287820453 ], [ 127.118349224037118, 37.446078760473348 ], [ 127.11804683197856, 37.446744067052073 ], [ 127.117827682492134, 37.447429800918762 ], [ 127.1176938882505, 37.448129358554802 ], [ 127.117646740099232, 37.448836003138119 ], [ 127.117686694535777, 37.44954292941091 ], [ 127.117813369219334, 37.450243329213457 ], [ 127.118025546559295, 37.450930457053339 ], [ 127.118321185350723, 37.451597695078007 ], [ 127.118697440348527, 37.452238616825205 ], [ 127.119150689594875, 37.452847049136054 ], [ 127.1196765692398, 37.453417131634168 ], [ 127.120270015521768, 37.453943373196509 ], [ 127.120925313505666, 37.454420704871218 ], [ 127.121636152110042, 37.454844528731179 ], [ 127.122395684894173, 37.455210762191577 ], [ 127.123196596018815, 37.455515877363162 ], [ 127.124031170745141, 37.455756935060826 ], [ 127.124891369790348, 37.455931613138809 ], [ 127.125768906822486, 37.456038228878391 ], [ 127.126655328344725, 37.456075755211536 ], [ 127.127542095197015, 37.456043830623791 ], [ 127.128420664886505, 37.455942762640127 ], [ 127.129282573950377, 37.455773524860675 ], [ 127.130119519554242, 37.455537747574247 ], [ 127.130923439536744, 37.455237702041053 ], [ 127.131686590126307, 37.454876278596295 ], [ 127.13240162057869, 37.45445695878643 ], [ 127.133061644014361, 37.4539837818077 ], [ 127.133660303771393, 37.45346130557116 ], [ 127.134191834634379, 37.452894562770595 ], [ 127.134651118348415, 37.452289012378074 ], [ 127.135033732884764, 37.45165048703528 ], [ 127.135335994984118, 37.450985136848878 ], [ 127.135554995569521, 37.450299370132576 ], [ 127.135688627690541, 37.449599791667374 ], [ 127.135735606731728, 37.448893139075786 ], [ 127.135695482694516, 37.4481862179234 ], [ 127.135568644437356, 37.447485836173115 ], [ 127.135356315836859, 37.446798738623663 ], [ 127.135060543910811, 37.446131541963503 ], [ 127.134684179020653, 37.445490671065301 ], [ 127.134230847347311, 37.444882297133823 ], [ 127.134202299138963, 37.444851356089252 ], [ 127.134771752242244, 37.444354295922395 ], [ 127.135303209758732, 37.443787546864492 ], [ 127.135622964939273, 37.443365897708851 ], [ 127.135804282388023, 37.443473986342269 ], [ 127.136563770512879, 37.443840129210336 ], [ 127.137364619148258, 37.444145148617771 ], [ 127.138199114156862, 37.444386106302574 ], [ 127.139059217023828, 37.444560681083026 ], [ 127.139891092481449, 37.444661662132155 ], [ 127.140064416043217, 37.444894233667362 ], [ 127.1405904, 37.445464224417584 ], [ 127.141183931296226, 37.445990362112845 ], [ 127.141839294175909, 37.446467578801744 ], [ 127.142550176930754, 37.446891277664896 ], [ 127.143309732693098, 37.447257377321876 ], [ 127.144110645401099, 37.447562351172827 ], [ 127.144945200299716, 37.447803261394597 ], [ 127.145805358296514, 37.447977787262758 ], [ 127.146682833454747, 37.448084247525614 ], [ 127.147569172873773, 37.448121616613669 ], [ 127.148455838184958, 37.448089534527995 ], [ 127.148508737882608, 37.448083439060902 ], [ 127.148732416817495, 37.448464160543679 ], [ 127.149185887750463, 37.449072479195685 ], [ 127.14971197023668, 37.449642429450861 ], [ 127.149744102954415, 37.449670906736543 ], [ 127.149136482454878, 37.449692899006656 ], [ 127.148258012559438, 37.449794121620819 ], [ 127.147396213846164, 37.449963498536285 ], [ 127.146559383730676, 37.450199398997896 ], [ 127.145755579428709, 37.450499551751641 ], [ 127.144992540434046, 37.450861066895172 ], [ 127.144277614043915, 37.451280463681066 ], [ 127.143617684645932, 37.451753704005903 ], [ 127.143019107446392, 37.452276231264364 ], [ 127.142487647276639, 37.452843014194904 ], [ 127.142028423066805, 37.453448595296685 ], [ 127.141645858521727, 37.454087143352588 ], [ 127.141343639474997, 37.454752509554005 ], [ 127.141142641396016, 37.455382027624822 ], [ 127.140613359013059, 37.45531779356039 ], [ 127.13972693859354, 37.455280371928112 ], [ 127.138840185180342, 37.455312388025433 ], [ 127.137961636251092, 37.455413533594268 ], [ 127.137099750356654, 37.455582834808069 ], [ 127.136262825751288, 37.455818661640286 ], [ 127.135458920559472, 37.45611874354568 ], [ 127.13469577524549, 37.45648019130401 ], [ 127.133980738129225, 37.456899524816656 ], [ 127.133320694663553, 37.457372706589631 ], [ 127.132722001152175, 37.457895180581609 ], [ 127.132190423545708, 37.458461916044271 ], [ 127.131731081904476, 37.45906745593426 ], [ 127.13134840106369, 37.459705969431823 ], [ 127.131046067976541, 37.460371308061667 ], [ 127.130826996148372, 37.461057064876975 ], [ 127.130693297505999, 37.46175663613775 ], [ 127.130646261976324, 37.462463284890113 ], [ 127.130686344973896, 37.463170205835461 ], [ 127.130813162921356, 37.46387059086463 ], [ 127.131007900941086, 37.464500755486682 ], [ 127.130263157709919, 37.464217132546757 ], [ 127.129428468804832, 37.463976118592832 ], [ 127.128568166928858, 37.463801473225445 ], [ 127.127690535113757, 37.463694877901943 ], [ 127.126804023097691, 37.463657358893599 ], [ 127.125917166039429, 37.4636892774137 ], [ 127.125748090838997, 37.463708722055372 ], [ 127.125704494428305, 37.463710290881096 ], [ 127.124825830283598, 37.463811338025948 ], [ 127.123963819036675, 37.4639805425143 ], [ 127.1231267601475, 37.464216275250621 ], [ 127.122322713032247, 37.464516266595481 ], [ 127.121559419520338, 37.464877628200533 ], [ 127.120844229357346, 37.465296880796764 ], [ 127.120184029468447, 37.465769987669518 ], [ 127.119585177662472, 37.466292393498996 ], [ 127.119053441413314, 37.466859068193713 ], [ 127.118593942308166, 37.467464555296004 ], [ 127.118211106698055, 37.468103024495086 ], [ 127.117908623026366, 37.468768327742985 ], [ 127.117689406248587, 37.46945405843438 ], [ 127.117555569687752, 37.470153613081635 ], [ 127.117508404599604, 37.47086025489169 ], [ 127.117548367647245, 37.471567178633542 ], [ 127.11767507640964, 37.472267576171795 ], [ 127.117887312970623, 37.472954702035601 ], [ 127.118183035557223, 37.473621938391112 ], [ 127.118559398119459, 37.474262858791654 ], [ 127.118750362606818, 37.474519132839902 ], [ 127.11871587807687, 37.474555878741917 ], [ 127.118256328602115, 37.4751613634675 ], [ 127.117873450302156, 37.475799830508095 ], [ 127.117570932032095, 37.476465131836669 ], [ 127.117351689081303, 37.477150860866651 ], [ 127.117217835025698, 37.4778504141265 ], [ 127.117170661290331, 37.478557054836649 ], [ 127.117210624622558, 37.479263977776682 ], [ 127.117337342599541, 37.479964374818984 ], [ 127.117352141893392, 37.480012284558008 ], [ 127.116678463726601, 37.480407083855319 ], [ 127.116018104029919, 37.480880165360475 ], [ 127.115419101921418, 37.48140254791015 ], [ 127.114887226322182, 37.481969201637583 ], [ 127.114427600161619, 37.482574670287633 ], [ 127.11404465101478, 37.483213123727786 ], [ 127.113742068419327, 37.483878414062389 ], [ 127.113522768284597, 37.484564134811023 ], [ 127.1133888647378, 37.48526368258225 ], [ 127.113344674386624, 37.485925052216693 ], [ 127.112702737948993, 37.486228805893177 ], [ 127.111987294236954, 37.486648001953107 ], [ 127.111477933138147, 37.487012841232605 ], [ 127.111517391893798, 37.486422517325238 ], [ 127.111477478999703, 37.485715593595167 ], [ 127.111350806537914, 37.48501519120186 ], [ 127.11113859679341, 37.484328055143763 ], [ 127.110842895644453, 37.483660802480777 ], [ 127.110466552775861, 37.483019858625177 ], [ 127.110013194161169, 37.482411395484178 ], [ 127.109487187081641, 37.481841272049337 ], [ 127.108893598021325, 37.481314978003553 ], [ 127.108238143845298, 37.480837580887673 ], [ 127.107527136732472, 37.480413677334099 ], [ 127.106767423393777, 37.48004734883574 ], [ 127.10596631916053, 37.479742122474669 ], [ 127.105131537576966, 37.47950093698752 ], [ 127.104271116173379, 37.479326114492991 ], [ 127.103393339132097, 37.479219338152788 ], [ 127.102506657588862, 37.479181635980055 ], [ 127.101619608333451, 37.479213370950589 ], [ 127.100740731689285, 37.479314237511716 ], [ 127.099878489359639, 37.479483264522123 ], [ 127.09904118302714, 37.479718824594521 ], [ 127.098236874488038, 37.480018649751635 ], [ 127.097473308086435, 37.480379853245132 ], [ 127.096757836192992, 37.480798957328545 ], [ 127.096097348443422, 37.481271926717575 ], [ 127.095498205416192, 37.481794207416883 ], [ 127.094966177387704, 37.482360770540666 ], [ 127.094686388034148, 37.482729162343887 ], [ 127.094289482565742, 37.483151819846135 ], [ 127.093829683589149, 37.483757207237176 ], [ 127.093446553648022, 37.484395592731921 ], [ 127.093197413790008, 37.48494299629656 ], [ 127.093257316445715, 37.484630498750604 ], [ 127.093304719637743, 37.483923869644883 ], [ 127.093264979521393, 37.483216940470115 ], [ 127.093138481262272, 37.482516519268714 ], [ 127.09292644546791, 37.481829351221279 ], [ 127.092630916341818, 37.48116205369675 ], [ 127.092254741913038, 37.48052105254024 ], [ 127.091801546534086, 37.47991252021157 ], [ 127.091275695915556, 37.479342316369191 ], [ 127.090682255036299, 37.478815931470734 ], [ 127.090026939336028, 37.478338433932208 ], [ 127.089316059661869, 37.477914421353155 ], [ 127.088556461499167, 37.47754797627622 ], [ 127.087755459071758, 37.477242626905849 ], [ 127.086920764945049, 37.477001313162695 ], [ 127.086060415808362, 37.476826358399947 ], [ 127.085182695149228, 37.476719447052275 ], [ 127.084296053561147, 37.476681608432067 ], [ 127.083409027449662, 37.476713206828165 ], [ 127.082530156915482, 37.476813938002174 ], [ 127.081667903602749, 37.476982832115624 ], [ 127.080830569299394, 37.477218263060152 ], [ 127.080026216070181, 37.47751796410121 ], [ 127.079262588688422, 37.477879049685029 ], [ 127.078547040110678, 37.478298043200127 ], [ 127.077886460709522, 37.478770910426668 ], [ 127.07728721194448, 37.479293098352926 ], [ 127.076755065108372, 37.479859578986613 ], [ 127.076295145739167, 37.480464897740141 ], [ 127.075911884232283, 37.481103225925452 ], [ 127.075608973130542, 37.481768416854443 ], [ 127.075389331504425, 37.482454065005612 ], [ 127.075255076767846, 37.483153567688532 ], [ 127.075207504204087, 37.483860188612965 ], [ 127.075242070825681, 37.484477732957167 ], [ 127.07453078794731, 37.484333031056465 ], [ 127.073652996833061, 37.484226033755412 ], [ 127.072766273228993, 37.484188108151521 ], [ 127.072659145635143, 37.48419191377009 ], [ 127.072461389279539, 37.484016445621265 ], [ 127.071806145406001, 37.483538847873675 ], [ 127.07109532076845, 37.483114726367639 ], [ 127.070335760323772, 37.482748164694364 ], [ 127.069534777933782, 37.482442692180527 ], [ 127.068700085971884, 37.482201249931983 ], [ 127.067839721107234, 37.482026162538574 ], [ 127.066961966979136, 37.4819191157113 ], [ 127.066075274503362, 37.481881140066243 ], [ 127.065932946440867, 37.481886188239038 ], [ 127.065369193642312, 37.481475208742381 ], [ 127.064658425207242, 37.481051048711748 ], [ 127.063898917409148, 37.480684445857293 ], [ 127.063097983603498, 37.48037892990213 ], [ 127.062263335696485, 37.480137442370349 ], [ 127.061403009933542, 37.479962308287668 ], [ 127.060525289577924, 37.479855213814396 ], [ 127.059638625220614, 37.479817190025216 ], [ 127.058751553486246, 37.479848602990863 ], [ 127.057872614914345, 37.479949150257369 ], [ 127.057010271803279, 37.480117863756078 ], [ 127.056172826804357, 37.48035311911692 ], [ 127.055368343046581, 37.480652651295252 ], [ 127.054604566558311, 37.48101357636277 ], [ 127.053888851729766, 37.481432419253281 ], [ 127.053228090532272, 37.48190514719721 ], [ 127.053222207678999, 37.481910270676089 ], [ 127.053205117876459, 37.481895100273455 ], [ 127.052550016043014, 37.481417396463563 ], [ 127.051839321399029, 37.48099315978034 ], [ 127.051079877651247, 37.480626474924016 ], [ 127.050278997539493, 37.480320872407134 ], [ 127.049444392453736, 37.480079294586922 ], [ 127.048584098227906, 37.479904067358106 ], [ 127.047706397822068, 37.479796877777432 ], [ 127.046819741635503, 37.479758757834794 ], [ 127.045932666214284, 37.479790074526264 ], [ 127.045053712133367, 37.479890526324319 ], [ 127.044191341840133, 37.480059146079007 ], [ 127.043353858247102, 37.480294310322456 ], [ 127.042549324854178, 37.480593754886947 ], [ 127.041785488166823, 37.480954596687496 ], [ 127.041711246701027, 37.480998031534668 ], [ 127.0414177279999, 37.480603427901698 ], [ 127.04089225774068, 37.480033002335375 ], [ 127.040299167462408, 37.479506366696199 ], [ 127.039644169233227, 37.479028591815222 ], [ 127.038933570847604, 37.478604277962688 ], [ 127.038174215086656, 37.478237510581884 ] ], [ [ 127.103397539368771, 37.497406927955694 ], [ 127.102741980744213, 37.496929501043546 ], [ 127.10203085326971, 37.496505564871278 ], [ 127.101271004815302, 37.496139201245242 ], [ 127.100469752013097, 37.495833937585218 ], [ 127.09963480983734, 37.495592712986394 ], [ 127.098774217363783, 37.49541784994355 ], [ 127.097896260420768, 37.495311032008345 ], [ 127.097009391874877, 37.495273287594053 ], [ 127.096122150314969, 37.495304980082899 ], [ 127.095243077914489, 37.495405804331106 ], [ 127.094380638259864, 37.495574789604689 ], [ 127.093543134932148, 37.495810308918308 ], [ 127.092738631622908, 37.496110094687332 ], [ 127.091974874550303, 37.496471260542982 ], [ 127.09125921791987, 37.496890329101632 ], [ 127.090598553145284, 37.497363265421541 ], [ 127.090055338451549, 37.4978366332235 ], [ 127.08975172192352, 37.497748887736833 ], [ 127.088891128467154, 37.497573952749946 ], [ 127.088013161072411, 37.497467061337197 ], [ 127.087240106489404, 37.497434097096686 ], [ 127.087616881171073, 37.496938194731534 ], [ 127.088000125617185, 37.496299830172653 ], [ 127.088302987039299, 37.495634608802327 ], [ 127.088522550589929, 37.494948937696705 ], [ 127.088656703899503, 37.494249420719072 ], [ 127.08870415733702, 37.493542794902758 ], [ 127.088664456340155, 37.492835865558249 ], [ 127.088537985698935, 37.492135440729861 ], [ 127.088325965756169, 37.491448265633245 ], [ 127.088030440563969, 37.490780957705304 ], [ 127.087864634346829, 37.490498425439732 ], [ 127.088486708648503, 37.490266633104149 ], [ 127.08925041884882, 37.489905489145542 ], [ 127.089966019581041, 37.489486431932498 ], [ 127.090626618468292, 37.489013498132771 ], [ 127.091225853302248, 37.488491243316382 ], [ 127.091757953325427, 37.487924698046228 ], [ 127.092217794798856, 37.487319319393841 ], [ 127.092600950320588, 37.486680938349124 ], [ 127.092850100408, 37.486133536262855 ], [ 127.092790194799889, 37.486446033505807 ], [ 127.092742784949763, 37.48715266206554 ], [ 127.092782521885127, 37.487859590928359 ], [ 127.092909025364776, 37.488560011910906 ], [ 127.093121079451976, 37.489247179317715 ], [ 127.093416644134024, 37.489914474915828 ], [ 127.093792874884656, 37.490555471688729 ], [ 127.094246149984372, 37.49116399575491 ], [ 127.094772105338649, 37.491734185853794 ], [ 127.095365676460446, 37.492260549825247 ], [ 127.095403070778431, 37.492287789409176 ], [ 127.095668520537032, 37.492523179965296 ], [ 127.096323995515007, 37.493000646000517 ], [ 127.097035057364494, 37.493424616397384 ], [ 127.097794857495728, 37.493791007158158 ], [ 127.098596077494733, 37.494096288876868 ], [ 127.099430999646955, 37.494337520762592 ], [ 127.100291581321699, 37.49451237899008 ], [ 127.101169532499071, 37.494619179103822 ], [ 127.102056395690099, 37.494656892258497 ], [ 127.102943627476819, 37.494625155138856 ], [ 127.103822680883908, 37.494524273463291 ], [ 127.104685087784972, 37.494355219036677 ], [ 127.105522540545934, 37.494119620381461 ], [ 127.106326972116065, 37.493819747037342 ], [ 127.107090633792083, 37.493458487681359 ], [ 127.107806169903427, 37.493039322280261 ], [ 127.10846668869705, 37.492566288544097 ], [ 127.108660366192552, 37.492397436712338 ], [ 127.108689144008579, 37.492907442019913 ], [ 127.108226610550304, 37.493079878117832 ], [ 127.107462958151615, 37.493441144893069 ], [ 127.106747416287149, 37.493860308154225 ], [ 127.106086875266897, 37.494333332047653 ], [ 127.105487696183189, 37.494855662053638 ], [ 127.104955649660738, 37.495422268811943 ], [ 127.10449586027454, 37.496027696520386 ], [ 127.104112757171507, 37.496666115441407 ], [ 127.103810031372262, 37.497331378012504 ], [ 127.103700035484891, 37.497675105528089 ], [ 127.103397539368771, 37.497406927955694 ] ], [ [ 127.069697943712541, 37.50396079752322 ], [ 127.070286970434992, 37.504032599015353 ], [ 127.071173927160174, 37.504070544545989 ], [ 127.072061281220357, 37.504039040181887 ], [ 127.072940484461355, 37.503938389398144 ], [ 127.073803067311786, 37.503769561774476 ], [ 127.074640720440712, 37.503534183647709 ], [ 127.075445374864998, 37.503234522432543 ], [ 127.076209279732183, 37.50287346476231 ], [ 127.07692507702636, 37.502454488660817 ], [ 127.07758587247605, 37.501981630014896 ], [ 127.078185301978479, 37.50145944367118 ], [ 127.078717592900247, 37.500892959533616 ], [ 127.07887184608937, 37.500689987037354 ], [ 127.079500129902115, 37.500716822036416 ], [ 127.07912328256414, 37.501212697756344 ], [ 127.078739937314126, 37.50185103237601 ], [ 127.078436965654518, 37.502516227862671 ], [ 127.078217287241046, 37.503201878651311 ], [ 127.078083019844286, 37.503901382026243 ], [ 127.078036871746633, 37.504587010631383 ], [ 127.077788014869412, 37.504536403839197 ], [ 127.077347824519293, 37.504482774525485 ], [ 127.076540793889549, 37.50424946188852 ], [ 127.075680157709485, 37.504074430582648 ], [ 127.074802134061841, 37.503967440749975 ], [ 127.073915176455259, 37.503929522457916 ], [ 127.073027824335469, 37.503961040761922 ], [ 127.072148620939487, 37.504061692194433 ], [ 127.071286031113644, 37.504230507684653 ], [ 127.070448359883272, 37.504465861881307 ], [ 127.070298393022043, 37.504521702936906 ], [ 127.070155318922573, 37.504366538708638 ], [ 127.069697943712541, 37.50396079752322 ] ], [ [ 127.057891296994129, 37.502306649869666 ], [ 127.058607190102208, 37.501887785340358 ], [ 127.059268095026852, 37.501415029816002 ], [ 127.059626068006423, 37.501103306318988 ], [ 127.06021510561591, 37.501273700361189 ], [ 127.061075672492095, 37.501448843995391 ], [ 127.061953646083424, 37.501555935593508 ], [ 127.06284056868536, 37.501593943500879 ], [ 127.06372789630737, 37.501562501561487 ], [ 127.064293221183803, 37.501497822634022 ], [ 127.064650046485255, 37.501814412662839 ], [ 127.064061042844301, 37.501742583178718 ], [ 127.063174117775148, 37.501704584420914 ], [ 127.062286788280218, 37.501736022187679 ], [ 127.061407597378874, 37.501836593786436 ], [ 127.060545009797096, 37.502005330914635 ], [ 127.059707330538359, 37.502240608975121 ], [ 127.058902624985805, 37.50254016270533 ], [ 127.058138641302392, 37.502901107970089 ], [ 127.057740649290523, 37.503133966030582 ], [ 127.05773488863953, 37.503101992111318 ], [ 127.057540828192657, 37.502472226920766 ], [ 127.057891296994129, 37.502306649869666 ] ], [ [ 127.034711991245814, 37.491759530935525 ], [ 127.035591097599607, 37.491659157300326 ], [ 127.036453620188681, 37.491490601671721 ], [ 127.037291250262086, 37.491255487764988 ], [ 127.038095919057668, 37.490956080448377 ], [ 127.038859875582716, 37.490595263908304 ], [ 127.03893412823686, 37.490551830997653 ], [ 127.039227672186982, 37.490946440308946 ], [ 127.039753205289259, 37.491516872649989 ], [ 127.04034638578203, 37.492043510565388 ], [ 127.041001501298012, 37.492521281285377 ], [ 127.04171224252039, 37.492945582652858 ], [ 127.042471763952349, 37.493312327481846 ], [ 127.043272749868791, 37.493617982955058 ], [ 127.044107484813651, 37.493859604680168 ], [ 127.04436666428991, 37.493912396707579 ], [ 127.044251047954646, 37.494165980989024 ], [ 127.044031082847084, 37.494851567306164 ], [ 127.043896512684043, 37.495551030842698 ], [ 127.043848635787043, 37.496257635687208 ], [ 127.043868141416638, 37.496608690508012 ], [ 127.043392451263472, 37.49609244215015 ], [ 127.042799217494306, 37.495565819537291 ], [ 127.042144064030339, 37.495088058780851 ], [ 127.041433300160705, 37.494663760014497 ], [ 127.040673770259431, 37.494297008535717 ], [ 127.039872787896073, 37.493991335497995 ], [ 127.039038065445183, 37.493749683936976 ], [ 127.038177639870284, 37.493574380456771 ], [ 127.037299795395526, 37.49346711284776 ], [ 127.036412983806272, 37.493428913850565 ], [ 127.035525743143751, 37.493460151221996 ], [ 127.035026365788681, 37.493517167664763 ], [ 127.034492827573544, 37.493043437274913 ], [ 127.033837749373617, 37.492565630751407 ], [ 127.033127056776962, 37.492141282304857 ], [ 127.032367593472046, 37.491774477711182 ], [ 127.031993267703456, 37.491631590371874 ], [ 127.032060164761248, 37.491645224337475 ], [ 127.032937980033779, 37.491752530720163 ], [ 127.033824769765118, 37.491790755668795 ], [ 127.034711991245814, 37.491759530935525 ] ], [ [ 127.12629486346593, 37.524856838444954 ], [ 127.12558333791057, 37.524433043898945 ], [ 127.124823091046977, 37.52406683133416 ], [ 127.124021443340595, 37.523761726715357 ], [ 127.123186113564913, 37.5235206676061 ], [ 127.122325144524368, 37.523345974907805 ], [ 127.12144682566985, 37.52323933053232 ], [ 127.120559613349386, 37.523201761222381 ], [ 127.119672049458927, 37.523233628675122 ], [ 127.118792679272985, 37.523334626063125 ], [ 127.118660867967392, 37.523360471278735 ], [ 127.119241534039361, 37.5229447011899 ], [ 127.119840844164813, 37.522422304611716 ], [ 127.120372972207861, 37.521855633833795 ], [ 127.120832794163576, 37.521250147137138 ], [ 127.121130921284532, 37.520753277844285 ], [ 127.121650281134848, 37.520381371832514 ], [ 127.122249553914529, 37.519858962601255 ], [ 127.122742291459787, 37.519334193258032 ], [ 127.122975638113047, 37.519731277522538 ], [ 127.123429325440441, 37.520339688882906 ], [ 127.123955706689529, 37.520909748577544 ], [ 127.124549713270127, 37.521435965700704 ], [ 127.125205624851603, 37.521913271533492 ], [ 127.12591712444214, 37.522337068395352 ], [ 127.126677359232659, 37.522703273959259 ], [ 127.127479006619083, 37.523008360602631 ], [ 127.128314344766508, 37.523249389413451 ], [ 127.128946822416012, 37.52337768735525 ], [ 127.128706866447985, 37.523633264510892 ], [ 127.128247093077505, 37.524238781883348 ], [ 127.127864045335073, 37.524877275105233 ], [ 127.127561413712101, 37.525542595898465 ], [ 127.1274785810228, 37.52580161272229 ], [ 127.126950816012396, 37.525334134530347 ], [ 127.12629486346593, 37.524856838444954 ] ], [ [ 127.131826873577083, 37.543787949335488 ], [ 127.131024986490971, 37.54348289200118 ], [ 127.130629923063637, 37.54336894196188 ], [ 127.130941732357869, 37.543097160552875 ], [ 127.13102728771976, 37.543006055572235 ], [ 127.131491783191507, 37.543062401931756 ], [ 127.132379236908193, 37.543099890267996 ], [ 127.133267031729972, 37.543067928643069 ], [ 127.133680458241088, 37.543020408195275 ], [ 127.134165548650984, 37.543373238229442 ], [ 127.133965582743528, 37.543998554687832 ], [ 127.133831758912848, 37.544698119045677 ], [ 127.133814786863624, 37.544952943667845 ], [ 127.133299106482397, 37.544577868969348 ], [ 127.132587354480108, 37.544154116834967 ], [ 127.131826873577083, 37.543787949335488 ] ] ], [ [ [ 127.076187162173397, 37.535848285719567 ], [ 127.075593384279387, 37.535321827975977 ], [ 127.074937674806293, 37.534844248872346 ], [ 127.074226348394319, 37.534420146791639 ], [ 127.07346625483072, 37.534053605136378 ], [ 127.072664713108438, 37.533748153038893 ], [ 127.071829440983336, 37.533506731407144 ], [ 127.070968480706995, 37.533331664631412 ], [ 127.070090121647169, 37.533224638223395 ], [ 127.069202820539473, 37.533186682602214 ], [ 127.068315120134272, 37.533218163182447 ], [ 127.06743556701916, 37.533318776859637 ], [ 127.066572629404916, 37.533487554926637 ], [ 127.065734615662876, 37.533722872392843 ], [ 127.064929594394911, 37.534022463617134 ], [ 127.064165316802374, 37.534383444104321 ], [ 127.063449142099131, 37.534802338256398 ], [ 127.062787966684212, 37.535275112812045 ], [ 127.062188157754832, 37.53579721565395 ], [ 127.061655491997683, 37.536363619611251 ], [ 127.061195099948677, 37.536968870836859 ], [ 127.060811416557286, 37.53760714129529 ], [ 127.060585639501085, 37.53810231227073 ], [ 127.059885430351528, 37.53783539695069 ], [ 127.05905015486573, 37.537593885067935 ], [ 127.058189178498068, 37.537418725135019 ], [ 127.057310790771467, 37.537311603560106 ], [ 127.056423448697501, 37.537273551678076 ], [ 127.055535695420659, 37.537304935829837 ], [ 127.054656078037169, 37.537405453838907 ], [ 127.053793065375942, 37.537574137918803 ], [ 127.052954966530024, 37.537809363983527 ], [ 127.052149850919704, 37.538108867271681 ], [ 127.05138547065367, 37.538469764134661 ], [ 127.050669185933231, 37.538888579779552 ], [ 127.050007894215653, 37.539361281701034 ], [ 127.049407963816904, 37.539883318481365 ], [ 127.049005051133648, 37.540311606636834 ], [ 127.048845393611302, 37.540279112594099 ], [ 127.047966986448486, 37.540171921436162 ], [ 127.047079615959902, 37.540133799170611 ], [ 127.046191825563383, 37.540165112815636 ], [ 127.045312162712293, 37.540265560873252 ], [ 127.04444909667275, 37.540434176230193 ], [ 127.043610937051213, 37.540669335461857 ], [ 127.042805753852377, 37.540968774450178 ], [ 127.042041299834978, 37.541329610165491 ], [ 127.041324935909586, 37.541748368403645 ], [ 127.0406635602953, 37.542221017212078 ], [ 127.040063542115149, 37.542743005684606 ], [ 127.03953066006892, 37.543309307752139 ], [ 127.039070046773688, 37.543914470549488 ], [ 127.038686139308169, 37.54455266689348 ], [ 127.038382636438044, 37.545217751368767 ], [ 127.038162462936427, 37.545903319482065 ], [ 127.038027741344521, 37.546602769316621 ], [ 127.037979771447922, 37.547309365093859 ], [ 127.03801901766883, 37.548016302030753 ], [ 127.03814510449962, 37.548716771869074 ], [ 127.038356820024632, 37.549404028445196 ], [ 127.038652127500598, 37.550071452669165 ], [ 127.039028184887314, 37.550712616286802 ], [ 127.039481372143669, 37.55132134381013 ], [ 127.04000732602924, 37.551891772018827 ], [ 127.040600982078431, 37.5524184064585 ], [ 127.041256623344992, 37.55289617439076 ], [ 127.041967935448127, 37.55332047368325 ], [ 127.042728067391081, 37.553687217167933 ], [ 127.043529697565845, 37.553992872038606 ], [ 127.044365104307175, 37.554234493907117 ], [ 127.045226240315429, 37.554409755188807 ], [ 127.046104810228371, 37.554516967542796 ], [ 127.04699235059293, 37.554555098150054 ], [ 127.047880311462919, 37.554523779671818 ], [ 127.048760138833927, 37.554423313791808 ], [ 127.049623357117312, 37.554254668308189 ], [ 127.050461650856008, 37.554019467803343 ], [ 127.051266944891267, 37.553719977981402 ], [ 127.05203148220501, 37.553359083825548 ], [ 127.052747898685553, 37.5529402617858 ], [ 127.053409294094195, 37.552467546266534 ], [ 127.054009298547228, 37.551945490737644 ], [ 127.054412246070427, 37.551517186568354 ], [ 127.054571930006375, 37.551549673191808 ], [ 127.05545048047918, 37.551656815926016 ], [ 127.056337992412097, 37.551694876112883 ], [ 127.057225916133078, 37.55166348709227 ], [ 127.058105697995799, 37.551562951227844 ], [ 127.058968862850548, 37.551394236992223 ], [ 127.059807095755517, 37.551158969630301 ], [ 127.060612322138624, 37.550859415490443 ], [ 127.061376785634238, 37.550498460175497 ], [ 127.062093122842583, 37.55007958072467 ], [ 127.062754434289332, 37.549606812095256 ], [ 127.06335435090034, 37.549084708268616 ], [ 127.063887095350111, 37.54851829835571 ], [ 127.064347537693024, 37.547913038127028 ], [ 127.064731244741409, 37.547274757434586 ], [ 127.064957022720876, 37.546779579302999 ], [ 127.065657333589741, 37.547046464783193 ], [ 127.066492736015476, 37.54728793033663 ], [ 127.067353845682348, 37.54746303026468 ], [ 127.068232367481528, 37.547570077781614 ], [ 127.069119838423433, 37.547608041657121 ], [ 127.070007709231106, 37.547576556159406 ], [ 127.070887426768437, 37.547475924581882 ], [ 127.071750516506, 37.547307116319622 ], [ 127.072588664226444, 37.547071757523611 ], [ 127.073393796179218, 37.546772115423259 ], [ 127.074158156909348, 37.546411076468864 ], [ 127.074874384008112, 37.545992118505318 ], [ 127.075535579062873, 37.545519277246171 ], [ 127.076135374121719, 37.54499710737214 ], [ 127.076667993031009, 37.544430638630068 ], [ 127.077128307055133, 37.543825327356664 ], [ 127.077511884243066, 37.543187003895078 ], [ 127.077815032067264, 37.542521816412275 ], [ 127.078034832925667, 37.541836171659547 ], [ 127.078169172167819, 37.541136673247671 ], [ 127.078211292305426, 37.540511225336708 ], [ 127.078219767238679, 37.540525660894879 ], [ 127.078673213799689, 37.541134240638073 ], [ 127.07919939722423, 37.541704496659463 ], [ 127.079793250832154, 37.542230936162618 ], [ 127.080449055770671, 37.542708488286607 ], [ 127.081160496079065, 37.543132552977958 ], [ 127.081920719522628, 37.543499045328936 ], [ 127.082722403609267, 37.543804434953216 ], [ 127.083557826152415, 37.544045780018749 ], [ 127.084418939698722, 37.544220755608578 ], [ 127.085297449101503, 37.544327676135275 ], [ 127.086184891490475, 37.544365511592481 ], [ 127.087072717863876, 37.544333897486091 ], [ 127.087952375514021, 37.544233138349043 ], [ 127.088815390489088, 37.54406420480575 ], [ 127.089653449292868, 37.543828724214542 ], [ 127.090458479032407, 37.543528964978428 ], [ 127.09122272523868, 37.543167814676323 ], [ 127.091938826607475, 37.54274875222584 ], [ 127.092599885938782, 37.542275814346965 ], [ 127.092663489668226, 37.542220420025906 ], [ 127.092951076639196, 37.542278835368883 ], [ 127.093829576054205, 37.542385692390681 ], [ 127.094717000337624, 37.542423463627465 ], [ 127.095327355076563, 37.542401685716456 ], [ 127.095284477499021, 37.542473075831971 ], [ 127.094981484675145, 37.543138309083133 ], [ 127.094761834791029, 37.543823986120351 ], [ 127.094627645347586, 37.544523503975071 ], [ 127.094580211006956, 37.545230126210569 ], [ 127.094616377514456, 37.54587283328302 ], [ 127.094002932971875, 37.545577200966989 ], [ 127.093201183239842, 37.54527188763867 ], [ 127.09236571532773, 37.54503061058638 ], [ 127.091504573370202, 37.544855692808618 ], [ 127.090626048482534, 37.54474881838302 ], [ 127.089738598995453, 37.544711016265943 ], [ 127.088850769086662, 37.544742650394788 ], [ 127.087971106589677, 37.544843416187518 ], [ 127.087108080767976, 37.545012343473225 ], [ 127.086270000842006, 37.545247805825468 ], [ 127.085464936051153, 37.545547536208943 ], [ 127.084700638016542, 37.545908648789357 ], [ 127.08398446615, 37.546327666697437 ], [ 127.083323316824661, 37.5468005554808 ], [ 127.08272355698837, 37.547322761922558 ], [ 127.082190962857069, 37.547889257854436 ], [ 127.081730664279206, 37.548494588543669 ], [ 127.081347095306484, 37.549132925189284 ], [ 127.081043951448308, 37.549798121023343 ], [ 127.081006930954857, 37.549913605930023 ], [ 127.08071741816309, 37.54987836278795 ], [ 127.079829913595603, 37.54984048589651 ], [ 127.078942019346471, 37.549872045102013 ], [ 127.078062283868206, 37.549972736543502 ], [ 127.07719917712619, 37.550141590765577 ], [ 127.076361009119211, 37.550376982045073 ], [ 127.075555849933835, 37.550676644030801 ], [ 127.074791452099149, 37.551037691546988 ], [ 127.07407517598692, 37.551456648350857 ], [ 127.073413918973202, 37.551929480578451 ], [ 127.07281404904181, 37.552451635557709 ], [ 127.07228134346812, 37.553018085616159 ], [ 127.071820933173043, 37.553623376463186 ], [ 127.071437253283648, 37.554261679681915 ], [ 127.071134000377171, 37.554926848826824 ], [ 127.070914096822406, 37.55561247858806 ], [ 127.070779662563339, 37.556311966453691 ], [ 127.070731994620488, 37.557018576277244 ], [ 127.070771554509662, 37.557725503138641 ], [ 127.070897963703274, 37.558425938874819 ], [ 127.07111000718146, 37.559113137648723 ], [ 127.071405645042134, 37.559780480925255 ], [ 127.071782032062231, 37.560421541228187 ], [ 127.072235545024498, 37.561030144063068 ], [ 127.072761817549534, 37.561600427409189 ], [ 127.073355782100393, 37.562126898206408 ], [ 127.074011718756779, 37.562604485291743 ], [ 127.074723310289855, 37.563028588274328 ], [ 127.075483703008445, 37.563395121876873 ], [ 127.076285572789729, 37.563700555314995 ], [ 127.077121195657767, 37.563941946333934 ], [ 127.077982522228467, 37.564116969573448 ], [ 127.078861255301831, 37.564223938986558 ], [ 127.079748929851405, 37.564261824095539 ], [ 127.080636994637189, 37.564230259927712 ], [ 127.081516894653035, 37.564129550534766 ], [ 127.082380153610515, 37.563960666061902 ], [ 127.083218455661239, 37.563725233394869 ], [ 127.084023725567434, 37.56342552047532 ], [ 127.084788206545085, 37.563064414436404 ], [ 127.085504535027283, 37.562645393769891 ], [ 127.086165811625435, 37.56217249479392 ], [ 127.086765667603075, 37.561650272745702 ], [ 127.087298326221088, 37.561083757875075 ], [ 127.087758658363029, 37.560478406963384 ], [ 127.088142231905223, 37.559840050735765 ], [ 127.08844535435729, 37.559174837674817 ], [ 127.088482368109524, 37.559059350575957 ], [ 127.088771920216331, 37.559094574855912 ], [ 127.089659539649759, 37.559132385150853 ], [ 127.09054754004633, 37.559100746022388 ], [ 127.0914273670207, 37.558999962244677 ], [ 127.092290544988657, 37.558831004679774 ], [ 127.093128758882855, 37.558595500917733 ], [ 127.093933934315586, 37.558295719585232 ], [ 127.09469831541378, 37.557934548474492 ], [ 127.095414539573611, 37.557515466704047 ], [ 127.096075708412229, 37.557042511180526 ], [ 127.096675454232027, 37.556520237685575 ], [ 127.097208001355611, 37.555953676964293 ], [ 127.097668221741074, 37.555348286239258 ], [ 127.098051684341584, 37.554709896618597 ], [ 127.098354697735516, 37.554044656906029 ], [ 127.098574345617891, 37.55335897435522 ], [ 127.098708514813595, 37.552659452940162 ], [ 127.098755915545809, 37.551952829737004 ], [ 127.098719711021985, 37.551310124371568 ], [ 127.09933322119663, 37.55160573227478 ], [ 127.100135063930509, 37.551911004174791 ], [ 127.100970633984872, 37.552152226560139 ], [ 127.101831882483921, 37.552327075695921 ], [ 127.102710512979641, 37.552433867213232 ], [ 127.103598061434099, 37.552471572349035 ], [ 127.104485977822861, 37.552439827865186 ], [ 127.105365708570588, 37.552338939551248 ], [ 127.106228779020924, 37.552169879276697 ], [ 127.107066875143317, 37.551934275621335 ], [ 127.107871923685764, 37.551634398174308 ], [ 127.108636169998775, 37.551273135653801 ], [ 127.109352252778081, 37.550853968058867 ], [ 127.110013275004022, 37.550380933122661 ], [ 127.110612870392359, 37.549858587391476 ], [ 127.111145264715688, 37.54929196230578 ], [ 127.11160533140476, 37.548686515707587 ], [ 127.111988640893713, 37.54804807924252 ], [ 127.112291503236051, 37.547382802164783 ], [ 127.11251100358173, 37.546697092087143 ], [ 127.112645030176452, 37.545997553247901 ], [ 127.112692294616323, 37.545290922890167 ], [ 127.112652344165625, 37.544584006367032 ], [ 127.112525566022853, 37.543883611597842 ], [ 127.112313183497619, 37.543196483506968 ], [ 127.1120172441384, 37.542529239076543 ], [ 127.111640599929686, 37.541888303638217 ], [ 127.111186879751514, 37.541279849016533 ], [ 127.110660454370631, 37.540709734119162 ], [ 127.110066394301541, 37.540183448544781 ], [ 127.109410420946119, 37.5397060597506 ], [ 127.108698851482501, 37.539282164286824 ], [ 127.107938538035242, 37.5389158435665 ], [ 127.107136801711661, 37.538610624594995 ], [ 127.106301362138836, 37.538369446036199 ], [ 127.105440263178266, 37.538194629940833 ], [ 127.104561795531254, 37.538087859408058 ], [ 127.10367441697754, 37.538050162394505 ], [ 127.10306409975874, 37.538071983683075 ], [ 127.10310696738604, 37.538000590632485 ], [ 127.103409867003734, 37.537335335420117 ], [ 127.103629418266081, 37.536649640979988 ], [ 127.103763508926946, 37.535950111400041 ], [ 127.103810849964006, 37.535243483834613 ], [ 127.103770987902521, 37.534536563610366 ], [ 127.103644309088679, 37.533836158682782 ], [ 127.103432035874505, 37.53314901407466 ], [ 127.103136214755111, 37.532481746927829 ], [ 127.102759696575774, 37.531840782793303 ], [ 127.102306109002797, 37.531232293772554 ], [ 127.101779821525895, 37.530662139105111 ], [ 127.101185903332038, 37.530135808773139 ], [ 127.10053007445741, 37.529658370665274 ], [ 127.099818650689727, 37.529234421806976 ], [ 127.099058482751616, 37.528868044125687 ], [ 127.098256890350285, 37.528562765175423 ], [ 127.097421591728263, 37.528321524197686 ], [ 127.096560629391107, 37.528146643844153 ], [ 127.09568229272584, 37.528039807832535 ], [ 127.094795038252187, 37.528002044749748 ], [ 127.093907408271789, 37.528033718157538 ], [ 127.093027948694825, 37.528134523095879 ], [ 127.092165126832597, 37.528303489016963 ], [ 127.091327249943348, 37.528538989122239 ], [ 127.090522385313008, 37.528838756012682 ], [ 127.089758282636751, 37.529199903502125 ], [ 127.089042299446362, 37.52961895438478 ], [ 127.088381330299072, 37.530091873890164 ], [ 127.08831773380777, 37.530147266060801 ], [ 127.088030197053911, 37.53008883961126 ], [ 127.087151850399138, 37.529981940127811 ], [ 127.086264577829908, 37.529944112858097 ], [ 127.085376921821918, 37.52997572198155 ], [ 127.084497428535784, 37.530076463156753 ], [ 127.083634565606914, 37.53024536644952 ], [ 127.082796640688514, 37.530480805664077 ], [ 127.081991721528311, 37.530780513987459 ], [ 127.081227558345915, 37.531141605797309 ], [ 127.080511509254919, 37.531560604423852 ], [ 127.079850469446356, 37.53203347559981 ], [ 127.079250804813171, 37.532555666277354 ], [ 127.078718290654024, 37.533122148439517 ], [ 127.078258056046295, 37.533727467485704 ], [ 127.077874534424552, 37.53436579472671 ], [ 127.077571420840812, 37.53503098348488 ], [ 127.077351636320614, 37.535716628260758 ], [ 127.077217299659793, 37.536416126397164 ], [ 127.077175173854698, 37.537041574350717 ], [ 127.077166699511423, 37.537027138712673 ], [ 127.07671328980075, 37.536418552987406 ], [ 127.076187162173397, 37.535848285719567 ] ] ], [ [ [ 127.115969932434766, 37.335310508275889 ], [ 127.115377443717151, 37.33478423994957 ], [ 127.114723215237575, 37.334306873873139 ], [ 127.114013547371755, 37.333883006385236 ], [ 127.113255273937256, 37.333516718636382 ], [ 127.112455696405959, 37.333211537320956 ], [ 127.111622513629669, 37.332970400745964 ], [ 127.110763747754461, 37.332795630562643 ], [ 127.109887667034215, 37.332688909431653 ], [ 127.109002706284869, 37.332651264836329 ], [ 127.108117385741508, 37.33268305919885 ], [ 127.107240229096845, 37.332783986394503 ], [ 127.106379681506752, 37.332953074696903 ], [ 127.105544028348632, 37.333188696126456 ], [ 127.104741315511944, 37.333488582112018 ], [ 127.103979271985182, 37.33384984531579 ], [ 127.10326523548197, 37.334269007411912 ], [ 127.102606081820383, 37.334742032552626 ], [ 127.102008158733497, 37.335264366200597 ], [ 127.101477224748109, 37.335830978955023 ], [ 127.101018393719144, 37.336436414950647 ], [ 127.100636085554839, 37.337074844365283 ], [ 127.10033398360784, 37.337740119531112 ], [ 127.100114999144182, 37.338425834111121 ], [ 127.099981243234907, 37.339125384771485 ], [ 127.099934006343446, 37.339832034757123 ], [ 127.099973745808498, 37.340538978758765 ], [ 127.100100081346625, 37.341239408447322 ], [ 127.10031179862122, 37.34192657804455 ], [ 127.100606860847165, 37.342593869298426 ], [ 127.100982428322695, 37.34323485523722 ], [ 127.101434885704109, 37.343843362087405 ], [ 127.101959876762692, 37.344413528758572 ], [ 127.102552346292072, 37.344939863320974 ], [ 127.102606398804028, 37.344979308438731 ], [ 127.102060388838566, 37.345456225726757 ], [ 127.101529382791668, 37.34602283732481 ], [ 127.10107048942227, 37.346628272121428 ], [ 127.100688129239558, 37.34726670030625 ], [ 127.100385986097834, 37.34793197422362 ], [ 127.100166971660855, 37.348617687548732 ], [ 127.100033197289434, 37.349317236960019 ], [ 127.099985953625918, 37.35002388571457 ], [ 127.100025698075441, 37.350730828514969 ], [ 127.100152050307855, 37.351431257043664 ], [ 127.10036379582688, 37.35211842553349 ], [ 127.100658897576494, 37.352785715742911 ], [ 127.101034515475277, 37.353426700710024 ], [ 127.101487033694681, 37.354035206670396 ], [ 127.10201209542069, 37.354605372541883 ], [ 127.102604644766757, 37.355131706402084 ], [ 127.103258975436134, 37.355609138413826 ], [ 127.103968785665856, 37.356033069687037 ], [ 127.104727238923971, 37.356399416605463 ], [ 127.105527029774734, 37.356704650189819 ], [ 127.106360454276853, 37.356945830116693 ], [ 127.107219484235131, 37.357120633064639 ], [ 127.108095844587808, 37.357227375113141 ], [ 127.108981093182038, 37.357265027977846 ], [ 127.109866702165732, 37.357233228925068 ], [ 127.110744140208723, 37.357132284269596 ], [ 127.111604954757539, 37.356963166421849 ], [ 127.112440853528426, 37.356727504513181 ], [ 127.113243784449793, 37.356427568689689 ], [ 127.114006013281667, 37.356066248226725 ], [ 127.114720198161095, 37.355647023675495 ], [ 127.115379460353793, 37.355173933311235 ], [ 127.11597745052876, 37.354651534207292 ], [ 127.116508409916193, 37.354084858311303 ], [ 127.116967225759836, 37.353479363947983 ], [ 127.117349480529867, 37.352840883216778 ], [ 127.11765149442283, 37.352175565792692 ], [ 127.117870360741946, 37.351489819672459 ], [ 127.118003973818588, 37.350790249437921 ], [ 127.118051049208759, 37.350083592632259 ], [ 127.118011135974015, 37.349376654862262 ], [ 127.117884620930852, 37.348676244252154 ], [ 127.117672724832246, 37.347989105880522 ], [ 127.117377490520909, 37.347321856831471 ], [ 127.117001763172524, 37.346680922485142 ], [ 127.116549162821727, 37.346072474660602 ], [ 127.116024049438835, 37.345502372205935 ], [ 127.115431480895523, 37.344976104606395 ], [ 127.115377421625141, 37.344936665310669 ], [ 127.115923344118841, 37.344459686020137 ], [ 127.116454231468865, 37.343893008991436 ], [ 127.116912985011695, 37.343287513450875 ], [ 127.117295187816808, 37.342649031508969 ], [ 127.11759716058053, 37.341983712852077 ], [ 127.117815997001216, 37.341297965488572 ], [ 127.117949591697041, 37.340598394012133 ], [ 127.117996660399939, 37.339891735977787 ], [ 127.117956752234576, 37.339184797004094 ], [ 127.117830253967441, 37.338484385226955 ], [ 127.117618386188724, 37.337797245736283 ], [ 127.117323191467392, 37.337129995627102 ], [ 127.116947514596845, 37.336489060289992 ], [ 127.116494975124851, 37.335880611553875 ], [ 127.115969932434766, 37.335310508275889 ] ] ], [ [ [ 127.115582631730163, 37.362388625664721 ], [ 127.11505741310927, 37.361818519896197 ], [ 127.114464724090084, 37.361292248224181 ], [ 127.113810272867681, 37.360814877978179 ], [ 127.113100361962751, 37.360391005536044 ], [ 127.112341827532575, 37.360024712095154 ], [ 127.111541973561216, 37.359719524403829 ], [ 127.110708501560865, 37.359478380829735 ], [ 127.109849436460493, 37.359303603090886 ], [ 127.108973049393015, 37.359196873920212 ], [ 127.108087778121615, 37.359159220878155 ], [ 127.107202145868698, 37.359191006468102 ], [ 127.106324679325738, 37.359291924649831 ], [ 127.105463826630029, 37.359461003784006 ], [ 127.104627876094384, 37.359696615979686 ], [ 127.103824876469645, 37.359996492755215 ], [ 127.103062559504124, 37.360357746862164 ], [ 127.102348265543185, 37.360776900063065 ], [ 127.101688872883301, 37.361249916596698 ], [ 127.101090731558813, 37.361772242009522 ], [ 127.100559602198416, 37.36233884698099 ], [ 127.100100600539434, 37.362944275721674 ], [ 127.099718148134784, 37.363582698480094 ], [ 127.099415929728082, 37.364247967653327 ], [ 127.099196857709373, 37.364933676962686 ], [ 127.099063043995642, 37.365633223125556 ], [ 127.099015779610014, 37.366339869430561 ], [ 127.099055522159148, 37.367046810603981 ], [ 127.099181891333117, 37.367747238343945 ], [ 127.099393672474449, 37.368434406890749 ], [ 127.099688828185805, 37.369101698002133 ], [ 127.100064517867693, 37.369742684707163 ], [ 127.100517125001616, 37.370351193224273 ], [ 127.101042291918233, 37.370921362446211 ], [ 127.101634961718702, 37.371447700417818 ], [ 127.102289426946513, 37.371925137261719 ], [ 127.102999384542784, 37.372349074040763 ], [ 127.103757996555828, 37.372715427085119 ], [ 127.104557956020201, 37.373020667355938 ], [ 127.105391557369643, 37.373261854464964 ], [ 127.106250770704364, 37.37343666502116 ], [ 127.107127319194888, 37.373543415030447 ], [ 127.107721446853077, 37.373568686264235 ], [ 127.107390990627664, 37.373857246182062 ], [ 127.106859822373607, 37.374423878070822 ], [ 127.106400796613855, 37.375029329892286 ], [ 127.106018335134578, 37.375667771672873 ], [ 127.1057161227682, 37.376333055626553 ], [ 127.105497071848106, 37.377018775332317 ], [ 127.10536329408967, 37.377718327407358 ], [ 127.105316080171278, 37.378424975083064 ], [ 127.105355887215097, 37.379131913072278 ], [ 127.105482334291466, 37.379832333103387 ], [ 127.105694205993942, 37.380519489490474 ], [ 127.105989464053991, 37.381186764107859 ], [ 127.106365266887295, 37.381827730142923 ], [ 127.106817996886022, 37.382436214012642 ], [ 127.107343295197822, 37.38300635484655 ], [ 127.107936103658261, 37.383532660962381 ], [ 127.108590713475039, 37.384010062789102 ], [ 127.10930082019604, 37.384433961726401 ], [ 127.110059584432477, 37.384800274468574 ], [ 127.110859697751707, 37.3851054723647 ], [ 127.111693453104351, 37.385346615434507 ], [ 127.112552819105957, 37.385521380711083 ], [ 127.113429517455259, 37.385628084636494 ], [ 127.114315102740861, 37.38566569929354 ], [ 127.114455512594517, 37.385660654001825 ], [ 127.114458057152248, 37.385705742387607 ], [ 127.114584599475307, 37.38640615244676 ], [ 127.114796572351011, 37.387093292334036 ], [ 127.115091936536729, 37.387760544082127 ], [ 127.115467849426153, 37.388401481098079 ], [ 127.115920692351423, 37.389009930077847 ], [ 127.115946058063656, 37.38903745344448 ], [ 127.115873172404534, 37.389071989969516 ], [ 127.115158675285087, 37.389491217373546 ], [ 127.114499109422383, 37.389964302069068 ], [ 127.113900826519682, 37.390486688947185 ], [ 127.11336958857062, 37.391053348096293 ], [ 127.1129105123605, 37.391658823206022 ], [ 127.112528020162856, 37.392297284078872 ], [ 127.112225797107683, 37.392962582745184 ], [ 127.112006755633232, 37.393648312642313 ], [ 127.111873007365972, 37.39434787028928 ], [ 127.111825842702359, 37.395054518863645 ], [ 127.111865718292322, 37.395761453069291 ], [ 127.111992252547992, 37.39646186467062 ], [ 127.112204229225057, 37.397149008062406 ], [ 127.112499609045571, 37.397816265243506 ], [ 127.112875549253701, 37.398457209568591 ], [ 127.113328430919495, 37.39906566766301 ], [ 127.113853893730365, 37.399635778903864 ], [ 127.114446877937667, 37.400162051893226 ], [ 127.115101673056131, 37.400639417378457 ], [ 127.115811972848348, 37.401063277108669 ], [ 127.11657093606496, 37.401429548155335 ], [ 127.117371252355525, 37.401734702268719 ], [ 127.11820521271423, 37.401975799889946 ], [ 127.119064783780345, 37.402150518489755 ], [ 127.119941685275677, 37.402257174959736 ], [ 127.120827469830303, 37.402294741839903 ], [ 127.121713604425096, 37.402262857225125 ], [ 127.122591552662598, 37.402161828254997 ], [ 127.12276789691559, 37.402127186645266 ], [ 127.123237744242246, 37.40240750829151 ], [ 127.123996757514746, 37.402773731861672 ], [ 127.124797118600128, 37.403078835885296 ], [ 127.125631118060497, 37.403319881286087 ], [ 127.126490722157939, 37.403494546037983 ], [ 127.127367650295682, 37.403601147551534 ], [ 127.128253454846899, 37.403638658896355 ], [ 127.129139602599551, 37.403606718702591 ], [ 127.130017557029447, 37.40350563464547 ], [ 127.130878860605137, 37.403336380479466 ], [ 127.131715216329141, 37.403100586650432 ], [ 127.132518567726024, 37.402800524576804 ], [ 127.13328117650417, 37.402439084751727 ], [ 127.133995697140492, 37.402019748877862 ], [ 127.134655247667268, 37.401546556304424 ], [ 127.135253475977891, 37.401024065090787 ], [ 127.135784621011496, 37.400457308073221 ], [ 127.1362435682274, 37.399851744358905 ], [ 127.136625898834694, 37.399213206716119 ], [ 127.136927932304616, 37.398547845368533 ], [ 127.137146761757265, 37.397862068736089 ], [ 127.13728028188487, 37.39716248169433 ], [ 127.137327209144487, 37.396455821947747 ], [ 127.137287094029986, 37.395748895130538 ], [ 127.137160325307534, 37.395048509260263 ], [ 127.136948126177941, 37.39436140917573 ], [ 127.136652542406495, 37.393694211590599 ], [ 127.13627642253752, 37.393053341387528 ], [ 127.135823390387998, 37.392444969765961 ], [ 127.135297810087764, 37.391874954838102 ], [ 127.134704744005106, 37.391348785244453 ], [ 127.134049903964851, 37.390871527330276 ], [ 127.133339596229916, 37.390447776390687 ], [ 127.132580660776469, 37.3900816124522 ], [ 127.131780405447202, 37.389776561015587 ], [ 127.130946535615792, 37.389535559136192 ], [ 127.13057255048875, 37.389459570317221 ], [ 127.130949069095792, 37.389057786382978 ], [ 127.131407984786421, 37.388452240105401 ], [ 127.131790297575193, 37.38781371677603 ], [ 127.132092327103692, 37.387148366480545 ], [ 127.132311166528666, 37.386462597532386 ], [ 127.132444710444773, 37.385763014733158 ], [ 127.13249167507864, 37.385056355746627 ], [ 127.13245161056274, 37.384349426199904 ], [ 127.132324905174571, 37.383649034137129 ], [ 127.132112781503878, 37.382961924457113 ], [ 127.13181728458818, 37.382294713966381 ], [ 127.131441262134572, 37.381653827672331 ], [ 127.130988337021364, 37.38104543692981 ], [ 127.130462872347294, 37.380475400035699 ], [ 127.12986992936716, 37.379949205842486 ], [ 127.129215218720489, 37.379471920932779 ], [ 127.128505045424731, 37.379048140862011 ], [ 127.12774624816214, 37.378681945937601 ], [ 127.126946133445585, 37.378376861958934 ], [ 127.126112405295814, 37.37813582629488 ], [ 127.125253091106032, 37.377961159624448 ], [ 127.124376464405287, 37.377854543611392 ], [ 127.123490965261979, 37.377817004727 ], [ 127.123350570549363, 37.377822060837076 ], [ 127.123348020891271, 37.37777697255467 ], [ 127.123221410785732, 37.377076570481485 ], [ 127.123009388309086, 37.376389444262927 ], [ 127.122713997523974, 37.375722210865305 ], [ 127.122338085115317, 37.375081295517184 ], [ 127.121885272901878, 37.37447286985374 ], [ 127.121359922895408, 37.373902792508559 ], [ 127.12076709524699, 37.373376552724118 ], [ 127.120112499486339, 37.372899217522338 ], [ 127.119402439525288, 37.3724753829432 ], [ 127.118643752955748, 37.37210912981913 ], [ 127.117843745225699, 37.371803984509981 ], [ 127.117010119326721, 37.371562884975127 ], [ 127.116150901668448, 37.371388152508466 ], [ 127.115274364851402, 37.371281469407045 ], [ 127.114680252355953, 37.371256236192792 ], [ 127.115010669341984, 37.370967655559902 ], [ 127.115541752011069, 37.370400986251568 ], [ 127.11600067608714, 37.369795497907411 ], [ 127.116383022998804, 37.369157022569496 ], [ 127.116685112056416, 37.368491709861317 ], [ 127.11690403584079, 37.367805967734633 ], [ 127.117037688131447, 37.367106400733128 ], [ 127.117084784108741, 37.36639974636909 ], [ 127.117044872637763, 37.365692810225866 ], [ 127.116918340520115, 37.364992400412071 ], [ 127.116706408675, 37.364305261998474 ], [ 127.116411120291289, 37.36363801206938 ], [ 127.116035321066946, 37.362997076013073 ], [ 127.115582631730163, 37.362388625664721 ] ] ], [ [ [ 127.1362210452711, 37.407821371062084 ], [ 127.135695355515992, 37.407251358800487 ], [ 127.135102166348332, 37.406725191912606 ], [ 127.134447190778474, 37.406247936717108 ], [ 127.133736736374402, 37.405824188482384 ], [ 127.132977644524217, 37.405458027208425 ], [ 127.132177224575869, 37.405152978369827 ], [ 127.13134318348726, 37.404911978996523 ], [ 127.130483551662579, 37.404737349417672 ], [ 127.129606605686774, 37.40463077093959 ], [ 127.128720788699809, 37.404593269672091 ], [ 127.127834629173961, 37.404625206657876 ], [ 127.126956658873411, 37.404726274399998 ], [ 127.126095330782078, 37.404895499820299 ], [ 127.125258937787223, 37.405131253620809 ], [ 127.124455532897798, 37.405431265958029 ], [ 127.123692851762982, 37.405792648279942 ], [ 127.12297823823441, 37.40621192111626 ], [ 127.122318573686357, 37.406685047555477 ], [ 127.121720210773034, 37.407207472087322 ], [ 127.121188912259569, 37.407774164438088 ], [ 127.120729795515771, 37.40837966797811 ], [ 127.120347283207181, 37.409018152236392 ], [ 127.120045060659294, 37.409683469018226 ], [ 127.119826040307487, 37.410369211586591 ], [ 127.119692333576964, 37.411068776338325 ], [ 127.119645230466347, 37.411775426382356 ], [ 127.119685187034818, 37.412482356408013 ], [ 127.11981182091661, 37.413182758219484 ], [ 127.120023914909652, 37.413869886305228 ], [ 127.120319428607672, 37.414537122810863 ], [ 127.120695517966638, 37.415178041289451 ], [ 127.121148562620874, 37.415786468614549 ], [ 127.121674200688432, 37.416356544458836 ], [ 127.122267370732771, 37.416882777764599 ], [ 127.122922360478398, 37.417360099660726 ], [ 127.123632861812581, 37.417783912315606 ], [ 127.124392031543692, 37.418150133253619 ], [ 127.125192557330891, 37.418455234707267 ], [ 127.126026728148929, 37.418696277624662 ], [ 127.126886508608209, 37.418870940003309 ], [ 127.127763616411812, 37.418977539276369 ], [ 127.128649602200838, 37.419015048534916 ], [ 127.129535931016036, 37.41898310642916 ], [ 127.130414064587541, 37.418882020652795 ], [ 127.131275543656997, 37.418712764977023 ], [ 127.132112069535154, 37.418476969862517 ], [ 127.132915584106456, 37.418176906740449 ], [ 127.13367834750666, 37.417815466114455 ], [ 127.134393012722754, 37.41739612969544 ], [ 127.135052696394112, 37.416922936838354 ], [ 127.135651045131667, 37.416400445605873 ], [ 127.136182296715035, 37.415833688834944 ], [ 127.136641335577892, 37.415228125630897 ], [ 127.137023742047646, 37.414589588757579 ], [ 127.137325834866104, 37.413924228431625 ], [ 127.137544706583313, 37.413238453063478 ], [ 127.137678251486037, 37.412538867516759 ], [ 127.137725185794594, 37.41183220948168 ], [ 127.137685059936771, 37.411125284575995 ], [ 127.137558262784054, 37.410424900798766 ], [ 127.13734601781286, 37.409737802968493 ], [ 127.137050371231538, 37.409070607776854 ], [ 127.136674172190709, 37.408429740083122 ], [ 127.1362210452711, 37.407821371062084 ] ] ], [ [ [ 127.144975049730931, 37.583120513335643 ], [ 127.1443804124698, 37.582594401189503 ], [ 127.143723848879958, 37.582117203391427 ], [ 127.143011681820141, 37.581693514650937 ], [ 127.142250769165472, 37.581327414389314 ], [ 127.141448437788569, 37.581022427488357 ], [ 127.140612413041396, 37.580781490377063 ], [ 127.139750744414883, 37.580606922781371 ], [ 127.138871728090464, 37.58050040540823 ], [ 127.137983827125964, 37.580462963777613 ], [ 127.137095590042279, 37.580494958357775 ], [ 127.13621556859033, 37.580596081098143 ], [ 127.135352235487574, 37.580765358393172 ], [ 127.134513902912104, 37.581001160448608 ], [ 127.13370864253595, 37.581301216960526 ], [ 127.132944207864654, 37.581662638956523 ], [ 127.132227959627855, 37.582081946589916 ], [ 127.131566794937399, 37.582555102620077 ], [ 127.130967080893171, 37.583077551257965 ], [ 127.13043459327524, 37.583644262003816 ], [ 127.129974460911939, 37.584249778056545 ], [ 127.129591116260386, 37.584888268829879 ], [ 127.129288252676048, 37.585553586070851 ], [ 127.129068788784792, 37.586239323041539 ], [ 127.128934840302463, 37.586938876195219 ], [ 127.128887699576495, 37.58764550875383 ], [ 127.128927823049651, 37.58835241557523 ], [ 127.129054826769973, 37.589052788686011 ], [ 127.12926748999395, 37.589739882848789 ], [ 127.12956376685176, 37.590407080532572 ], [ 127.129940805965887, 37.591047955659995 ], [ 127.130394977837042, 37.591656335517058 ], [ 127.130921909737069, 37.592226360227954 ], [ 127.131516527774679, 37.59275253922133 ], [ 127.132173105730843, 37.593229804142979 ], [ 127.132885320194831, 37.593653557703874 ], [ 127.133646311469761, 37.594019717991721 ], [ 127.134448749661658, 37.594324757817937 ], [ 127.135284905313782, 37.594565738719666 ], [ 127.136146723904531, 37.594740339288073 ], [ 127.137025903489501, 37.594846877549152 ], [ 127.137913974736776, 37.594884327180154 ], [ 127.138802382581673, 37.594852327405427 ], [ 127.139682568710924, 37.594751186475129 ], [ 127.140546054078669, 37.594581878693859 ], [ 127.141384520655365, 37.594346035027421 ], [ 127.142189891619353, 37.594045927378851 ], [ 127.142954409215292, 37.593684446685693 ], [ 127.143670709526774, 37.593265075050319 ], [ 127.144331893440793, 37.592791852172923 ], [ 127.144931593118628, 37.592269336411462 ], [ 127.145464033332402, 37.591702560845214 ], [ 127.145924087075471, 37.59109698476626 ], [ 127.146307324912016, 37.590458441067653 ], [ 127.146610057591388, 37.589793080036259 ], [ 127.146829371518393, 37.589107310092835 ], [ 127.146963156740213, 37.588407736051238 ], [ 127.147010127183393, 37.587701095492235 ], [ 127.146969832949054, 37.586994193865408 ], [ 127.146842664551414, 37.586293838944549 ], [ 127.146629849062464, 37.585606775268012 ], [ 127.146333438203428, 37.584939619195232 ], [ 127.145956288501466, 37.584298795204461 ], [ 127.145502033705668, 37.583690474044552 ], [ 127.144975049730931, 37.583120513335643 ] ] ] ] } }
]
}
