{
"type": "FeatureCollection",
"name": "pangyo",
"crs": { "type": "name", "properties": { "name": "urn:ogc:def:crs:OGC:1.3:CRS84" } },
"features": [
{ "type": "Feature", "properties": { }, "geometry": { "type": "Polygon", "coordinates": [ [ [ 127.100629293981157, 37.395495443391113 ], [ 127.100578085878766, 37.395646126910222 ], [ 127.100572178752316, 37.395662683494258 ], [ 127.100545268768187, 37.39573260673432 ], [ 127.100543874341881, 37.395737112974338 ], [ 127.100539902585879, 37.395748315909927 ], [ 127.100503655043084, 37.395836915977583 ], [ 127.1004651480646, 37.395924977314813 ], [ 127.100425511201408, 37.396012679177574 ], [ 127.100383614654064, 37.396099662103538 ], [ 127.100339797449791, 37.396186106009949 ], [ 127.100294059464559, 37.39627192079336 ], [ 127.100262511999915, 37.396328080336431 ], [ 127.100230578744743, 37.396382888671098 ], [ 127.100211614563449, 37.396415232895528 ], [ 127.10019526454748, 37.396443105904147 ], [ 127.100178089696556, 37.396470664243537 ], [ 127.100160903527936, 37.396498213579648 ], [ 127.100143446177967, 37.396525664027706 ], [ 127.100125988803455, 37.396553105462964 ], [ 127.100108305420477, 37.396580447972362 ], [ 127.100072023362713, 37.396634755319766 ], [ 127.100053424687474, 37.396661720157425 ], [ 127.100034532195849, 37.396688550084711 ], [ 127.100015639678972, 37.396715370998741 ], [ 127.099996509859196, 37.396742092995687 ], [ 127.099977380025891, 37.396768814989457 ], [ 127.099961519293643, 37.396790984136302 ], [ 127.099945658540278, 37.396813144270794 ], [ 127.099945647258721, 37.396813153290339 ], [ 127.099942389435469, 37.39681770612421 ], [ 127.099939131611862, 37.396822258957968 ], [ 127.09991710231823, 37.396851253910889 ], [ 127.099895084300954, 37.396880248850195 ], [ 127.099873066266738, 37.396909243785274 ], [ 127.099851036922274, 37.396938238725539 ], [ 127.099829244850753, 37.396967332575848 ], [ 127.099807441480792, 37.396996435441551 ], [ 127.09978607879404, 37.397025736160003 ], [ 127.099764727395794, 37.397055045875234 ], [ 127.099743375980935, 37.397084355586493 ], [ 127.099722013244318, 37.397113656293023 ], [ 127.099701113813623, 37.397143181864415 ], [ 127.099680214366529, 37.397172707431984 ], [ 127.099659925098635, 37.397202502793576 ], [ 127.099639635802987, 37.397232289141392 ], [ 127.099634213463474, 37.397239799089235 ], [ 127.099585409788304, 37.397314083145766 ], [ 127.099384184957074, 37.397671213659116 ], [ 127.099381255979054, 37.3976768474217 ], [ 127.099375413063854, 37.397690998179527 ], [ 127.099375413075592, 37.397691007189678 ], [ 127.099355103660358, 37.39774025540865 ], [ 127.099325993371053, 37.397813099453934 ], [ 127.099300565781533, 37.397886769378871 ], [ 127.099276493749201, 37.397960735511418 ], [ 127.099254206548409, 37.398035087599013 ], [ 127.099217346671722, 37.398184686399162 ], [ 127.099207930210042, 37.398212607595177 ], [ 127.099201654929033, 37.398250446360386 ], [ 127.099195379653509, 37.398288294135156 ], [ 127.099190222656318, 37.39832631217832 ], [ 127.099185065665623, 37.398364339231129 ], [ 127.099180744452539, 37.398402410643911 ], [ 127.099176411941528, 37.398440482065631 ], [ 127.099173976935205, 37.398478696082101 ], [ 127.099171541926452, 37.39851691009828 ], [ 127.099170021696381, 37.398555123358683 ], [ 127.09916851277012, 37.398593345619659 ], [ 127.099168276831108, 37.398602995674651 ], [ 127.09916745069917, 37.398636505068133 ], [ 127.099166635848462, 37.398670005441971 ], [ 127.099168989312147, 37.398708206492238 ], [ 127.099171354071828, 37.398746407532897 ], [ 127.099175390185849, 37.398784526101679 ], [ 127.099179426292281, 37.398822635659918 ], [ 127.099183857621824, 37.398860699840661 ], [ 127.099188288955844, 37.398898764020949 ], [ 127.099194376134662, 37.398933493081387 ], [ 127.099200452025471, 37.398968222150586 ], [ 127.099206470962415, 37.399002572840494 ], [ 127.099212489916582, 37.399036932539978 ], [ 127.099232606293313, 37.399151813216086 ], [ 127.09924187942552, 37.399204776161596 ], [ 127.099252187961369, 37.399263639891259 ], [ 127.099258473357096, 37.399311811909882 ], [ 127.099264792618726, 37.399359965879519 ], [ 127.099269282516076, 37.399408283543224 ], [ 127.09927323033196, 37.399456610664629 ], [ 127.099273970942306, 37.399505102619514 ], [ 127.099274212019452, 37.399525501374413 ], [ 127.099274437975723, 37.399577732961781 ], [ 127.099273461820445, 37.399626136233572 ], [ 127.09927261234202, 37.399650338168108 ], [ 127.099271774156875, 37.399674540093166 ], [ 127.099270924677469, 37.399698742027475 ], [ 127.099270075185785, 37.399722934951548 ], [ 127.099269225693575, 37.399747127875521 ], [ 127.099266727239197, 37.399771268101723 ], [ 127.099264240065338, 37.399795399308289 ], [ 127.099261685127161, 37.399819530570731 ], [ 127.099259141469446, 37.399843652813537 ], [ 127.099256597810125, 37.399867775056208 ], [ 127.099254054149213, 37.399891897298744 ], [ 127.099249257401624, 37.399920391320322 ], [ 127.099244539180575, 37.399948479820495 ], [ 127.099240683793568, 37.399971341727166 ], [ 127.099236906934422, 37.399993798112497 ], [ 127.099228837647814, 37.400041756735284 ], [ 127.099220757068835, 37.400089724376571 ], [ 127.0992115795069, 37.400119159069732 ], [ 127.099202413231694, 37.400148593752689 ], [ 127.099192302149234, 37.400181020581016 ], [ 127.099182202351926, 37.400213447398968 ], [ 127.099127058032977, 37.400390361933304 ], [ 127.099096016041315, 37.40048994957192 ], [ 127.099088201471332, 37.400507994315277 ], [ 127.099081726887519, 37.400522965495632 ], [ 127.099075252289396, 37.400537927665461 ], [ 127.099064079521369, 37.400561678594585 ], [ 127.099052906746294, 37.400585429522529 ], [ 127.099043995281519, 37.400602420981393 ], [ 127.099035083801056, 37.400619403429445 ], [ 127.099025969516575, 37.400636764469773 ], [ 127.099023603656335, 37.400641289509515 ], [ 127.099023581068494, 37.400641289528139 ], [ 127.09901490609731, 37.400657767211847 ], [ 127.099013081106179, 37.40066133673092 ], [ 127.0990130022589, 37.40066149897838 ], [ 127.099053166583261, 37.400655203809855 ], [ 127.099054679663524, 37.400654968298191 ], [ 127.099043865372664, 37.400667762602602 ], [ 127.099005003307184, 37.400676732704994 ], [ 127.099003200751227, 37.400680185073611 ], [ 127.098991213598708, 37.400703026642837 ], [ 127.098979226450652, 37.400725877220914 ], [ 127.098969075642955, 37.400745203320717 ], [ 127.098958936135674, 37.400764538420411 ], [ 127.098958936147326, 37.400764547430562 ], [ 127.098958924865087, 37.400764556449978 ], [ 127.098958767135088, 37.400764853914488 ], [ 127.098956434891917, 37.400769180702099 ], [ 127.098931874661375, 37.40081596354851 ], [ 127.098905958544407, 37.400862296999364 ], [ 127.098877895496457, 37.400907821299683 ], [ 127.0988476855145, 37.400952536447946 ], [ 127.098818605358773, 37.400997611063893 ], [ 127.098788621301438, 37.401042416111856 ], [ 127.098758298156369, 37.401087041228052 ], [ 127.098725375846712, 37.401130497155172 ], [ 127.098691323402278, 37.401173413393451 ], [ 127.098656931750327, 37.401216059596202 ], [ 127.098622201123121, 37.401258615965645 ], [ 127.098586453298779, 37.401300632551511 ], [ 127.098549462163746, 37.401341929335686 ], [ 127.098511792882505, 37.401382866258857 ], [ 127.098473897331516, 37.401423533051229 ], [ 127.098435888915347, 37.401464290025061 ], [ 127.098344635666137, 37.401554105737887 ], [ 127.098189764035993, 37.401706503749267 ], [ 127.098121970196999, 37.40177161233396 ], [ 127.097977470686615, 37.401910306182195 ], [ 127.097920730971239, 37.401964683570469 ], [ 127.097857448200259, 37.402025012951377 ], [ 127.097689032011985, 37.402185530451952 ], [ 127.09759077968377, 37.402279315724684 ], [ 127.09763786824945, 37.402272970361132 ], [ 127.097532958852582, 37.402371986873938 ], [ 127.097432630068937, 37.402431985694662 ], [ 127.097427100171103, 37.402435323929964 ], [ 127.097245146756393, 37.402609727374404 ], [ 127.097229579664017, 37.402624606697657 ], [ 127.097188067502188, 37.402664374984127 ], [ 127.097154451515763, 37.402696478255514 ], [ 127.097120835500647, 37.402728581517188 ], [ 127.097087106514635, 37.402760684860446 ], [ 127.097053377499819, 37.402792788193992 ], [ 127.097018631060266, 37.402824171528763 ], [ 127.096983884591708, 37.402855554853204 ], [ 127.09694575004913, 37.402887121104392 ], [ 127.096919459587539, 37.402906964613656 ], [ 127.096909191529875, 37.402914631511514 ], [ 127.096886849355684, 37.402930777673284 ], [ 127.096831332192423, 37.402970737330342 ], [ 127.09679149802659, 37.402998070138487 ], [ 127.096750985491695, 37.403024862871447 ], [ 127.096708889336611, 37.403049764737304 ], [ 127.096666680324873, 37.403074756780221 ], [ 127.096624584227868, 37.403099748717153 ], [ 127.096581809649251, 37.403124110475176 ], [ 127.096538016850687, 37.403147121515879 ], [ 127.096505848384439, 37.403163185399897 ], [ 127.096449413209328, 37.403191973048457 ], [ 127.096404376140555, 37.403213543417081 ], [ 127.096358546968872, 37.403233943086541 ], [ 127.096312378489273, 37.403253982604838 ], [ 127.096265530738592, 37.403272761230745 ], [ 127.0962184567382, 37.40329126971524 ], [ 127.096179960382258, 37.403304995943543 ], [ 127.09617047746994, 37.403308427385674 ], [ 127.096141577068693, 37.403318812170177 ], [ 127.096122611122894, 37.403325584946209 ], [ 127.096084337787389, 37.403337058431624 ], [ 127.096046064553406, 37.403348622005858 ], [ 127.096007451346736, 37.403359284826067 ], [ 127.095968498507943, 37.40336931719564 ], [ 127.095929318754955, 37.403378538821592 ], [ 127.095889912540926, 37.403387310108627 ], [ 127.09585005228584, 37.403394279718164 ], [ 127.095809966023964, 37.403401159393134 ], [ 127.095769652175477, 37.403406687715986 ], [ 127.095729224700989, 37.403411675507655 ], [ 127.09568879654455, 37.403416122678045 ], [ 127.095647914581576, 37.403418948371915 ], [ 127.095607031826887, 37.403421143342996 ], [ 127.095566034099519, 37.403421716567465 ], [ 127.095525148751989, 37.403421839181689 ], [ 127.095484261941635, 37.403420790465653 ], [ 127.09544337367042, 37.403418570419362 ], [ 127.095402597895173, 37.40341598986425 ], [ 127.095283092595238, 37.40340698445813 ], [ 127.095163699481972, 37.403397348133026 ], [ 127.095044082192388, 37.403389063384637 ], [ 127.094924354222485, 37.403382580629277 ], [ 127.094873189162939, 37.403381179415618 ], [ 127.094822137048467, 37.403379778090724 ], [ 127.094770860389346, 37.403379458136847 ], [ 127.094719699352027, 37.403381300501543 ], [ 127.094668538869925, 37.403383593350348 ], [ 127.09461749166222, 37.40338615639179 ], [ 127.094566558731188, 37.403389800537269 ], [ 127.094515626908645, 37.403394345673235 ], [ 127.094464922079311, 37.403399791622142 ], [ 127.094436239282786, 37.403403688522971 ], [ 127.094364081116851, 37.403413926656114 ], [ 127.094313943979458, 37.403421804830479 ], [ 127.094250709519812, 37.403433027005363 ], [ 127.09421412411001, 37.403439723191049 ], [ 127.094114984624582, 37.403459893467797 ], [ 127.094065641801251, 37.403470834360014 ], [ 127.094016865673922, 37.403483396612238 ], [ 127.094013320548285, 37.403484453571082 ], [ 127.093968882237135, 37.403497670149839 ], [ 127.093921238497416, 37.403512664213075 ], [ 127.093890371771849, 37.403522464325235 ], [ 127.093890371760779, 37.403522455315112 ], [ 127.093873707792682, 37.403527748270157 ], [ 127.093793214597284, 37.403556733641437 ], [ 127.093712608396302, 37.403585719045921 ], [ 127.093632907335959, 37.403616055210158 ], [ 127.09355422490772, 37.403648192554215 ], [ 127.09347576873995, 37.40368069007512 ], [ 127.093397425558095, 37.403713277557358 ], [ 127.093319987507115, 37.4037472158047 ], [ 127.093243454474276, 37.403782414717675 ], [ 127.093167713183931, 37.403818604081842 ], [ 127.093108836385966, 37.403847175783106 ], [ 127.093092198256798, 37.403855243728621 ], [ 127.093017361796342, 37.403892603612533 ], [ 127.092941733887045, 37.403929333351606 ], [ 127.09286587903128, 37.403965252305511 ], [ 127.092824563908863, 37.403983754988182 ], [ 127.092782795896753, 37.404001356992687 ], [ 127.092697336378095, 37.404033769299602 ], [ 127.092654097196345, 37.404049029758596 ], [ 127.092610518619011, 37.404063839956635 ], [ 127.092566486830151, 37.404077479170354 ], [ 127.092521662671984, 37.404089677356396 ], [ 127.092473902383276, 37.404102238189346 ], [ 127.092652713599136, 37.404305459183327 ], [ 127.092693491114943, 37.40458879638657 ], [ 127.092689133747697, 37.404627993818039 ], [ 127.092694225446976, 37.404635558402191 ], [ 127.0926942028143, 37.404635522379138 ], [ 127.092801944172379, 37.404796216030427 ], [ 127.092938856299156, 37.405000460020638 ], [ 127.093013032191394, 37.405115561125719 ], [ 127.092930709483724, 37.405127797486081 ], [ 127.092699032205175, 37.405162953700213 ], [ 127.092671997872728, 37.405167029103673 ], [ 127.092471389214808, 37.405302822092807 ], [ 127.092640384857035, 37.405363357181649 ], [ 127.092719772788854, 37.405389650604313 ], [ 127.092910157887431, 37.405643003606954 ], [ 127.093437878616896, 37.406021929988569 ], [ 127.093693899846855, 37.406200077170517 ], [ 127.093865280648586, 37.406287377730948 ], [ 127.09393588327967, 37.406203834713558 ], [ 127.09400838847445, 37.406124524925261 ], [ 127.094036834758043, 37.406092759985555 ], [ 127.094109823629267, 37.406103785309327 ], [ 127.094234452244606, 37.406105777997119 ], [ 127.094315793262041, 37.406102776883351 ], [ 127.094475530740709, 37.406108661163081 ], [ 127.094589835757517, 37.406128735910862 ], [ 127.094497467252467, 37.406220063168583 ], [ 127.094256115539423, 37.40645399347288 ], [ 127.094185763065539, 37.406520453278453 ], [ 127.094205780385906, 37.406541169893615 ], [ 127.094238769394167, 37.406575301424901 ], [ 127.094467348402787, 37.406808673484022 ], [ 127.094504770847536, 37.406847351568629 ], [ 127.094756367634631, 37.406978160691317 ], [ 127.094818713720159, 37.406976868112885 ], [ 127.094978034300695, 37.406972949022013 ], [ 127.095215322762968, 37.406932278716553 ], [ 127.095415646476283, 37.406948779525649 ], [ 127.095462343391134, 37.406970024353541 ], [ 127.095487058941629, 37.406980970038681 ], [ 127.095528014402177, 37.406999255071455 ], [ 127.095588848895275, 37.407026597474029 ], [ 127.095648565217772, 37.407053922715114 ], [ 127.095835630205798, 37.407080272426001 ], [ 127.095963635608584, 37.407098631997705 ], [ 127.096148301619365, 37.406923687872336 ], [ 127.096222386608389, 37.406853475701666 ], [ 127.096279097154039, 37.406798946022128 ], [ 127.096321396498666, 37.406825960517331 ], [ 127.09620106982355, 37.406940530606946 ], [ 127.096026006228939, 37.407107817541174 ], [ 127.096134389682305, 37.407123940078478 ], [ 127.09651542738797, 37.407002259121811 ], [ 127.096778587621031, 37.406869193062356 ], [ 127.096858097084294, 37.40662353992245 ], [ 127.097104330193062, 37.406574983760159 ], [ 127.097230845759455, 37.40655022970347 ], [ 127.097718309237564, 37.40656962935013 ], [ 127.098024457302216, 37.406580192019547 ], [ 127.098022399476164, 37.406578499795096 ], [ 127.096917725077219, 37.406260392666326 ], [ 127.098020840216108, 37.406578050561322 ], [ 127.098023096645022, 37.406576075501619 ], [ 127.098346361420994, 37.406669516542536 ], [ 127.098442968164946, 37.406697458886342 ], [ 127.09886396014528, 37.406810820840789 ], [ 127.099158736125602, 37.406882839004197 ], [ 127.099304373039629, 37.406918398751714 ], [ 127.099493725755067, 37.406957436052764 ], [ 127.099509527991515, 37.406949313842787 ], [ 127.099617688641146, 37.40691543617536 ], [ 127.099663426668201, 37.406910712952126 ], [ 127.099781895388546, 37.406899712301076 ], [ 127.099799741717007, 37.406900057873216 ], [ 127.099838042079128, 37.406908315348026 ], [ 127.099908702508927, 37.406959974700293 ], [ 127.09991807912445, 37.406961408517567 ], [ 127.099965431095967, 37.406981641886951 ], [ 127.099977411026714, 37.406978640549291 ], [ 127.100000179424185, 37.406985694537113 ], [ 127.100003037310117, 37.406994540101628 ], [ 127.100015126215695, 37.407031642745601 ], [ 127.100013652287402, 37.407061881960225 ], [ 127.100012926334628, 37.407076785315212 ], [ 127.100019770801609, 37.40711111720772 ], [ 127.100019770813418, 37.407111126217863 ], [ 127.100027041083038, 37.407142853828283 ], [ 127.100030187732386, 37.407156573630054 ], [ 127.100031766710856, 37.407163438031233 ], [ 127.100051538732131, 37.407167980680001 ], [ 127.100057854473732, 37.407169426046998 ], [ 127.100062373785633, 37.40717045844508 ], [ 127.10005967485499, 37.407205374936389 ], [ 127.100065854431364, 37.40724083364541 ], [ 127.100094253802922, 37.407278346160147 ], [ 127.100047255965791, 37.407416582657042 ], [ 127.099989736594296, 37.407541790242391 ], [ 127.099989635258225, 37.407542033600208 ], [ 127.099922293121608, 37.407704884627599 ], [ 127.099918666152618, 37.407703905542405 ], [ 127.099853525240633, 37.407865988833663 ], [ 127.099864569288911, 37.407941871938 ], [ 127.099922657430199, 37.408009336479367 ], [ 127.099937231529182, 37.408020659086937 ], [ 127.099972089548928, 37.408047750544327 ], [ 127.100016965175698, 37.408082618394886 ], [ 127.100011499249703, 37.408178193349421 ], [ 127.100108430137766, 37.40824467937005 ], [ 127.100147692777995, 37.40840053981065 ], [ 127.100157682739891, 37.408438896589267 ], [ 127.100217622868044, 37.408669145358964 ], [ 127.10023976805779, 37.40861402995818 ], [ 127.100234712321523, 37.408574398640532 ], [ 127.100234694063658, 37.408574226051641 ], [ 127.100257116993077, 37.408742851243481 ], [ 127.100266060578917, 37.408810050292871 ], [ 127.101236053476001, 37.409176254587621 ], [ 127.101491800244176, 37.409219386322434 ], [ 127.101657980472538, 37.409248708796056 ], [ 127.102019135580022, 37.409309409908197 ], [ 127.102053483493549, 37.409342583012226 ], [ 127.102446162507249, 37.409721844953197 ], [ 127.102688604677851, 37.409537227561735 ], [ 127.102784559110134, 37.409496194406998 ], [ 127.102852456179974, 37.409379779502338 ], [ 127.10285246746308, 37.409379770482523 ], [ 127.102852467450944, 37.409379761472394 ], [ 127.10287973750917, 37.409290042318261 ], [ 127.102940541029994, 37.40908996543093 ], [ 127.103059565290991, 37.408802142980839 ], [ 127.103156367164701, 37.408511348140969 ], [ 127.103167729081889, 37.408493921802396 ], [ 127.103175382569347, 37.408482166019624 ], [ 127.103184230873666, 37.408468589163789 ], [ 127.1031699639408, 37.408450959606185 ], [ 127.103192053416834, 37.408456562930809 ], [ 127.10332257947158, 37.408256200589719 ], [ 127.103368164852185, 37.408221724632497 ], [ 127.103417841149962, 37.408180496548162 ], [ 127.103842398847064, 37.408005594751067 ], [ 127.104026320955171, 37.408075750455922 ], [ 127.104305787838484, 37.408046432159516 ], [ 127.104370080907728, 37.40816339074572 ], [ 127.104518055086601, 37.408136997417579 ], [ 127.104604436125925, 37.40815920417571 ], [ 127.104789368234663, 37.408182649322356 ], [ 127.104986063105088, 37.408151869964108 ], [ 127.105132800330935, 37.408170653716439 ], [ 127.105358843874029, 37.408192106740486 ], [ 127.10546997941222, 37.408235527987237 ], [ 127.105545857697862, 37.408193293866631 ], [ 127.105614403086548, 37.408198360299565 ], [ 127.105763189413295, 37.40803285737659 ], [ 127.106395027453402, 37.40769643718113 ], [ 127.106480513189979, 37.40765168912025 ], [ 127.106690939727727, 37.407692966729428 ], [ 127.106901884033945, 37.407410230366082 ], [ 127.106325877727727, 37.407395082754014 ], [ 127.106198105821079, 37.407392474886599 ], [ 127.106198151101012, 37.407392546927518 ], [ 127.105297061128894, 37.407374095636143 ], [ 127.105221891252711, 37.407372557787866 ], [ 127.105116590470473, 37.407365694281147 ], [ 127.105115541817469, 37.407366983648032 ], [ 127.105090929776537, 37.407391314530905 ], [ 127.1050597643098, 37.407422147448678 ], [ 127.104868029130415, 37.407427730284191 ], [ 127.104864158234406, 37.407421886095698 ], [ 127.104845696992157, 37.407401566375519 ], [ 127.10484568568485, 37.40740155737528 ], [ 127.104970514980081, 37.407383445988401 ], [ 127.105119781571716, 37.407361799110518 ], [ 127.105168234157262, 37.407302479024111 ], [ 127.105152768145018, 37.407218103736554 ], [ 127.105155863119322, 37.407218227165551 ], [ 127.105406146616602, 37.407209808305879 ], [ 127.105625404638474, 37.407145463352279 ], [ 127.105965096766141, 37.407022085436651 ], [ 127.106518827735769, 37.407143231702122 ], [ 127.106819159624195, 37.407143685420813 ], [ 127.106997713373616, 37.407130461584202 ], [ 127.107072477886717, 37.407124988787167 ], [ 127.107109208653171, 37.407060443484347 ], [ 127.107362888461807, 37.407138424563669 ], [ 127.107586758978229, 37.407062358679816 ], [ 127.107729900063632, 37.407087098133196 ], [ 127.10813249861927, 37.407201254503342 ], [ 127.108332469701466, 37.4072373848296 ], [ 127.108656672554147, 37.407264752591018 ], [ 127.108970519458978, 37.407316726519376 ], [ 127.109125855151007, 37.407259100645561 ], [ 127.109217054109934, 37.407293346190833 ], [ 127.109432675214606, 37.407372889206549 ], [ 127.109592749386209, 37.407390312744774 ], [ 127.109653789750368, 37.407344936001451 ], [ 127.109669068832332, 37.407366456227862 ], [ 127.109794116357747, 37.407375261806088 ], [ 127.109873979577728, 37.407380865023498 ], [ 127.110040257884521, 37.407392605890657 ], [ 127.110424037511336, 37.407377296212729 ], [ 127.110512236697389, 37.407367484005356 ], [ 127.110603822374216, 37.407356317088961 ], [ 127.110611954057177, 37.407355859080106 ], [ 127.110766738651421, 37.407230655614939 ], [ 127.110845146116574, 37.40716724195552 ], [ 127.110860150503186, 37.407154974309272 ], [ 127.110994843968527, 37.407039790359931 ], [ 127.111126823502005, 37.40692271664448 ], [ 127.111256089106462, 37.406803753171921 ], [ 127.111375083655005, 37.406690024972939 ], [ 127.111402152383945, 37.406663419945467 ], [ 127.11150647854133, 37.406560156990295 ], [ 127.111614061176596, 37.406444096528638 ], [ 127.111655222872926, 37.406400178874499 ], [ 127.111721189050613, 37.406326234365352 ], [ 127.111773057791567, 37.406266719168983 ], [ 127.111824474793067, 37.406207294472011 ], [ 127.111874874130606, 37.406147149891744 ], [ 127.111920873073828, 37.406090162943009 ], [ 127.111972621801741, 37.406026052603778 ], [ 127.112020081763035, 37.405964198781454 ], [ 127.11206596118366, 37.405902887024865 ], [ 127.112112176324189, 37.405839502606447 ], [ 127.112149371147737, 37.405786668459591 ], [ 127.112200655227596, 37.405714088931624 ], [ 127.112244384917162, 37.405650436482361 ], [ 127.112287437252121, 37.405587054954694 ], [ 127.112328793594301, 37.405522503683436 ], [ 127.112368682095223, 37.405458314178354 ], [ 127.112409020055523, 37.405392592515746 ], [ 127.112447100086911, 37.405327593767311 ], [ 127.112484953894949, 37.405262415015642 ], [ 127.112504443576952, 37.405228518638097 ], [ 127.112522356252811, 37.405197506978915 ], [ 127.112558965266615, 37.405130797648901 ], [ 127.112594331813355, 37.405064089473989 ], [ 127.112629583489237, 37.404996119977646 ], [ 127.11264647675435, 37.404963217129307 ], [ 127.11267890549945, 37.404895790878022 ], [ 127.112710655582688, 37.404827734546259 ], [ 127.112741615924421, 37.404760309657142 ], [ 127.11277234912167, 37.404692074061288 ], [ 127.112802517405044, 37.404623748887047 ], [ 127.112831104138564, 37.404555244990604 ], [ 127.112858447360907, 37.404486021447056 ], [ 127.112884887108848, 37.404416888848687 ], [ 127.112911891264559, 37.404347575509263 ], [ 127.112971380543954, 37.404249309028124 ], [ 127.113028605294303, 37.404071124791777 ], [ 127.113080851025671, 37.40388672823002 ], [ 127.113126544168537, 37.403701256608976 ], [ 127.113164001447373, 37.403522009732129 ], [ 127.113331445373277, 37.403411477396716 ], [ 127.113365670773206, 37.403413877762638 ], [ 127.113381259477663, 37.403415574940894 ], [ 127.113389261541968, 37.403480170014504 ], [ 127.113507532469896, 37.40349303264594 ], [ 127.11365687721846, 37.403515506533843 ], [ 127.11380453664421, 37.40354383841894 ], [ 127.113950397970953, 37.403578118515966 ], [ 127.114094121996061, 37.403618076850471 ], [ 127.11423491800879, 37.403663624082597 ], [ 127.114373011922552, 37.403714760006935 ], [ 127.114507273919543, 37.403771215408604 ], [ 127.114644372174467, 37.403835957264128 ], [ 127.115049016613511, 37.404038117172341 ], [ 127.114825587383947, 37.404321249586772 ], [ 127.114854297010638, 37.404335638279832 ], [ 127.114608658524261, 37.404647083364608 ], [ 127.114088628557951, 37.405306310154813 ], [ 127.114089673102484, 37.40600450399878 ], [ 127.115184469033196, 37.406003456608957 ], [ 127.115242975612858, 37.406003400350464 ], [ 127.115243452384874, 37.406318844451697 ], [ 127.115209813180144, 37.406481059088485 ], [ 127.115210089688276, 37.40666405449705 ], [ 127.115266563716546, 37.406664000180903 ], [ 127.115266836141885, 37.406844202448298 ], [ 127.115210361978384, 37.406844256764764 ], [ 127.11521064216744, 37.407029684892514 ], [ 127.115239493033116, 37.407136787545028 ], [ 127.115226669371452, 37.407395750890494 ], [ 127.115204357317552, 37.407654362941813 ], [ 127.11517255636555, 37.407912353390401 ], [ 127.115131266010437, 37.408169451925559 ], [ 127.115181222718505, 37.40819102821002 ], [ 127.115150739726246, 37.408349635695131 ], [ 127.115133910749563, 37.408424886402855 ], [ 127.115155834888967, 37.408432614040002 ], [ 127.115284664096265, 37.4084757387457 ], [ 127.115416283121831, 37.408496335313771 ], [ 127.11544051637172, 37.408387920177006 ], [ 127.115483437861627, 37.408164337634311 ], [ 127.115491216692149, 37.408154599202007 ], [ 127.115546039526407, 37.408107693696749 ], [ 127.115553371458361, 37.408101199336031 ], [ 127.115586575073806, 37.407875193383823 ], [ 127.115612887750117, 37.407648653455887 ], [ 127.115632309685708, 37.407421669657879 ], [ 127.11564472813042, 37.407194332203119 ], [ 127.115685023023929, 37.40702706536581 ], [ 127.115684744947018, 37.40684379966816 ], [ 127.11562827078464, 37.406843854184189 ], [ 127.115628000499882, 37.406665634144026 ], [ 127.115961987902921, 37.406665311346153 ], [ 127.11631969439189, 37.406664964577594 ], [ 127.116677287926763, 37.406664616836927 ], [ 127.117069443558677, 37.406664234243159 ], [ 127.117068102219989, 37.405790793829368 ], [ 127.117066962943625, 37.405048900972183 ], [ 127.117117374065799, 37.405073179045779 ], [ 127.117251078582825, 37.405131433886666 ], [ 127.117387938575249, 37.405185000216562 ], [ 127.117448058100024, 37.405205934886645 ], [ 127.117475751556853, 37.405146711185289 ], [ 127.117557568479739, 37.405175283128635 ], [ 127.117685145088998, 37.405214532119707 ], [ 127.117657451633193, 37.405273665768014 ], [ 127.118420302969398, 37.405500239544736 ], [ 127.1183525122932, 37.405412818204276 ], [ 127.118775127239417, 37.405538361448301 ], [ 127.1188292417404, 37.405619218720418 ], [ 127.118782459740629, 37.405967416458779 ], [ 127.118743828009301, 37.406254967923978 ], [ 127.11876623997324, 37.406358472059708 ], [ 127.118873424151758, 37.405559798133361 ], [ 127.118886710878854, 37.405461124042652 ], [ 127.118921433125536, 37.405202138482018 ], [ 127.119051166958243, 37.404235763329865 ], [ 127.118999160233159, 37.404347000017374 ], [ 127.118938878644244, 37.404801080322855 ], [ 127.118894895012048, 37.405132426433909 ], [ 127.11879907822528, 37.4051800949916 ], [ 127.118505057052488, 37.405092807811762 ], [ 127.118369843157083, 37.405081408550579 ], [ 127.118491957506265, 37.405021550652833 ], [ 127.117871939496098, 37.404837454759807 ], [ 127.117750917315902, 37.404800181752876 ], [ 127.117634972922716, 37.404759750090022 ], [ 127.117521394389854, 37.404715351535089 ], [ 127.117410294537422, 37.404666895882933 ], [ 127.117300769402988, 37.404614113721742 ], [ 127.116660556187043, 37.404292626750362 ], [ 127.116624990929694, 37.404153004359451 ], [ 127.116627809712682, 37.404149848069693 ], [ 127.11669961992213, 37.404061388759899 ], [ 127.116765552458489, 37.403970051892458 ], [ 127.116825268780246, 37.403876018009832 ], [ 127.116853089270663, 37.403825984650467 ], [ 127.116800432341989, 37.403809637563256 ], [ 127.116826563087201, 37.403762489098902 ], [ 127.116872496602042, 37.403666216096632 ], [ 127.116882398062572, 37.403641698879902 ], [ 127.116935393860174, 37.403658135701704 ], [ 127.116962286736097, 37.403592515693397 ], [ 127.116996804266847, 37.403490757605425 ], [ 127.117001857953696, 37.403472011596541 ], [ 127.116994243034839, 37.403367321306106 ], [ 127.117011728160179, 37.40327999605347 ], [ 127.117025461513933, 37.403176636427439 ], [ 127.117027338529525, 37.403148613083737 ], [ 127.117066173372507, 37.402990086918457 ], [ 127.11706588643851, 37.402803217055961 ], [ 127.117009415311145, 37.402803272226713 ], [ 127.117009138752579, 37.402623069846094 ], [ 127.117088198141502, 37.402622992600037 ], [ 127.117087416065289, 37.402113740643912 ], [ 127.119107038795661, 37.402333669022418 ], [ 127.119330475531356, 37.402357954172039 ], [ 127.119352628173402, 37.402223951420403 ], [ 127.119129191828634, 37.402199666311439 ], [ 127.117087206574041, 37.401977327426629 ], [ 127.117008134450757, 37.401968664854351 ], [ 127.117008134450757, 37.401968664854344 ], [ 127.117087206574041, 37.401977327426614 ], [ 127.117086475441127, 37.401501232659314 ], [ 127.117029823063319, 37.40145614724279 ], [ 127.117007347956914, 37.401456169196457 ], [ 127.117007071416637, 37.401275966774449 ], [ 127.117063541397954, 37.401275911606746 ], [ 127.117063256839813, 37.401090573410301 ], [ 127.117029208980526, 37.400982485054769 ], [ 127.117028168607831, 37.40030465356147 ], [ 127.117061788854087, 37.400134419238206 ], [ 127.117061502513607, 37.399947909689701 ], [ 127.117005033252155, 37.399947784652326 ], [ 127.117004756732371, 37.399767582183991 ], [ 127.119499337761809, 37.399773589024768 ], [ 127.119534800340375, 37.399773643737596 ], [ 127.119563849239228, 37.399551244560001 ], [ 127.119264374844974, 37.399523701823981 ], [ 127.119297111002126, 37.399297154366941 ], [ 127.119593489607965, 37.399324429808956 ], [ 127.1196066691342, 37.399223503106612 ], [ 127.11980413992984, 37.399187805791932 ], [ 127.119879369489723, 37.398621893837628 ], [ 127.119879592102706, 37.398619821282942 ], [ 127.118946889827185, 37.398788519989296 ], [ 127.118795366200345, 37.398812276930258 ], [ 127.118642476585407, 37.398829187324907 ], [ 127.118488672488397, 37.398839070518541 ], [ 127.118334292760835, 37.398841926172885 ], [ 127.117870121059497, 37.398840131283542 ], [ 127.117758764054159, 37.398839069485852 ], [ 127.117071077739851, 37.398828570934413 ], [ 127.117069680597524, 37.397918548241179 ], [ 127.117067145012854, 37.396266901742898 ], [ 127.11731006270405, 37.396266664123047 ], [ 127.117516544869346, 37.396293492178884 ], [ 127.118193913901507, 37.396292825764093 ], [ 127.118328148673157, 37.39626566281261 ], [ 127.118490658453283, 37.396265502169364 ], [ 127.118490063231633, 37.395882481595926 ], [ 127.118523699930435, 37.395726212438028 ], [ 127.118522868560802, 37.39519137113961 ], [ 127.118515832398401, 37.395169213147234 ], [ 127.11878731802544, 37.395168944226533 ], [ 127.118786932009982, 37.394921165644895 ], [ 127.118488569836018, 37.394921461152691 ], [ 127.118353053328676, 37.394921595124117 ], [ 127.1183534833675, 37.395198656632594 ], [ 127.117076800195008, 37.395199911144651 ], [ 127.116963869348908, 37.395200021450812 ], [ 127.116666070704809, 37.395200311810967 ], [ 127.116636129301369, 37.395043023844913 ], [ 127.116635945621638, 37.394922918798436 ], [ 127.116556894319103, 37.394922995728869 ], [ 127.11655731774708, 37.395200057254769 ], [ 127.116613852055451, 37.395245052962579 ], [ 127.116615166537073, 37.396104709462392 ], [ 127.116671563718427, 37.396059603841572 ], [ 127.116615166674862, 37.396104799563666 ], [ 127.116591931154218, 37.396123473172835 ], [ 127.115259895420451, 37.396124761933095 ], [ 127.115058383529131, 37.396097925163133 ], [ 127.114375369566815, 37.396098579003869 ], [ 127.114243053503287, 37.396125735640922 ], [ 127.114147174026357, 37.396125827002137 ], [ 127.113244393630168, 37.396126683427553 ], [ 127.113164568840418, 37.396062967009485 ], [ 127.113163954884598, 37.395649041602681 ], [ 127.113129916840109, 37.395542123328283 ], [ 127.113129419450061, 37.39520667613241 ], [ 127.113162966353826, 37.394982562169517 ], [ 127.11316288283065, 37.394926248843667 ], [ 127.112722454069356, 37.394926663848324 ], [ 127.112722789893709, 37.395153980472081 ], [ 127.112723003644447, 37.395298665169378 ], [ 127.112723045588098, 37.395327056094452 ], [ 127.112723701000391, 37.395770687932149 ], [ 127.112724053425012, 37.396009231145996 ], [ 127.112644304492676, 37.396073007829699 ], [ 127.112050394187591, 37.396073564472019 ], [ 127.112028142580357, 37.396070882226425 ], [ 127.112007352876773, 37.396063963843396 ], [ 127.111989493594436, 37.396053078256116 ], [ 127.111975469381917, 37.396039035533654 ], [ 127.111964824676448, 37.396019223161439 ], [ 127.111956330180533, 37.396002472228723 ], [ 127.111945352769638, 37.395986804831182 ], [ 127.111932005509061, 37.395972310964126 ], [ 127.111916401595792, 37.395959170723799 ], [ 127.111898993418805, 37.395947834194317 ], [ 127.111879893777498, 37.395938211168087 ], [ 127.111859441863345, 37.395930571632171 ], [ 127.111837863803174, 37.395925095577709 ], [ 127.111815724255138, 37.395921782477473 ], [ 127.111793249081188, 37.395920632120465 ], [ 127.111342537674233, 37.395921051578291 ], [ 127.111003741953311, 37.395921455851443 ], [ 127.110680982433081, 37.395921754249699 ], [ 127.110658511195297, 37.395923306716433 ], [ 127.110636494949887, 37.395927111294917 ], [ 127.110615159428207, 37.395933077675657 ], [ 127.110594956356593, 37.395941205442412 ], [ 127.11057622400746, 37.395951133877979 ], [ 127.110559188374594, 37.395962952876111 ], [ 127.110544074799563, 37.395976301824028 ], [ 127.110531109016122, 37.395991090412927 ], [ 127.110520742361643, 37.396007047923128 ], [ 127.110512073467987, 37.396025616809091 ], [ 127.110502384788902, 37.396041843996983 ], [ 127.110488062495719, 37.396055732816883 ], [ 127.110469782615155, 37.39606620142704 ], [ 127.110448786750098, 37.396072798174778 ], [ 127.110426429437467, 37.396075071303919 ], [ 127.109953921173371, 37.396075505542832 ], [ 127.109947664327876, 37.39607523196581 ], [ 127.109365054531622, 37.396049374049113 ], [ 127.109067817111736, 37.396049644765085 ], [ 127.108933127628802, 37.396076797620864 ], [ 127.107934694093643, 37.39607770036109 ], [ 127.107797329866315, 37.396050433064062 ], [ 127.10746946522579, 37.396050727285498 ], [ 127.10742520711274, 37.396050766932525 ], [ 127.107229394041681, 37.396050942145756 ], [ 127.107087689129344, 37.395956128857669 ], [ 127.107072225273583, 37.395913407550694 ], [ 127.107056128296804, 37.395870173228246 ], [ 127.107039466932022, 37.395827119609805 ], [ 127.107022241180132, 37.395784246695143 ], [ 127.107004563847397, 37.395741464281897 ], [ 127.106995941286485, 37.395721163108803 ], [ 127.106995703321942, 37.395720586671871 ], [ 127.106989380878332, 37.395705707553269 ], [ 127.106970071082017, 37.395682622765378 ], [ 127.106912006069876, 37.395613242361065 ], [ 127.10689218402571, 37.395571092551357 ], [ 127.106871797599155, 37.395529123443723 ], [ 127.106861072810062, 37.395507562712787 ], [ 127.106850959596159, 37.395487244835941 ], [ 127.106832263391752, 37.39545063525123 ], [ 127.106807816184656, 37.395403939422252 ], [ 127.10680073973694, 37.395390899033586 ], [ 127.106785397972317, 37.395362602817677 ], [ 127.106762528312345, 37.395321446813227 ], [ 127.106739207079343, 37.395280381307316 ], [ 127.106715434525796, 37.395239586502342 ], [ 127.10669109746955, 37.395198882295837 ], [ 127.106666196163161, 37.395158448890093 ], [ 127.106640956342872, 37.395118195982654 ], [ 127.106615152147768, 37.395078123774027 ], [ 127.106588896509109, 37.395038232163543 ], [ 127.106562076496871, 37.394998521251161 ], [ 127.106534918098546, 37.394959080937269 ], [ 127.106507195327694, 37.394919821320869 ], [ 127.106479021115447, 37.394880742301318 ], [ 127.106442362462005, 37.394831128933163 ], [ 127.106174610982535, 37.3952420486238 ], [ 127.106121536682735, 37.395163166715591 ], [ 127.106093926857426, 37.39512381680219 ], [ 127.10606597864431, 37.395084737485647 ], [ 127.106037353126538, 37.39504583896376 ], [ 127.106008389221799, 37.395007211038042 ], [ 127.10597874813871, 37.394968854007516 ], [ 127.105948768544394, 37.394930677471137 ], [ 127.105918224828187, 37.394892861830797 ], [ 127.105887116740789, 37.394855226883294 ], [ 127.105858273160763, 37.394821824697658 ], [ 127.105817815321046, 37.394882588769846 ], [ 127.105776227362355, 37.394942813215266 ], [ 127.105733396476936, 37.395002588233616 ], [ 127.105705216456869, 37.39504063587848 ], [ 127.105689548274583, 37.395061733421961 ], [ 127.10564445714175, 37.395120429180693 ], [ 127.105598235757952, 37.395178495206387 ], [ 127.105560129140954, 37.395224840885597 ], [ 127.1052882399986, 37.394932610482279 ], [ 127.105256773606826, 37.394798657227867 ], [ 127.104760815725186, 37.395069395644192 ], [ 127.104336989348297, 37.394575558434859 ], [ 127.104320064128729, 37.394586024919469 ], [ 127.104265214475006, 37.394611210897914 ], [ 127.104191513823451, 37.394642540119349 ], [ 127.104181693946757, 37.394646242805095 ], [ 127.104100314346951, 37.394677848940404 ], [ 127.104087219119421, 37.39468128415519 ], [ 127.104064637637777, 37.394684637493938 ], [ 127.104041829312109, 37.394687270213353 ], [ 127.103960191131478, 37.394694909488351 ], [ 127.103952737865058, 37.394695006046476 ], [ 127.103945283740345, 37.394694471894638 ], [ 127.103937829860996, 37.394694117945015 ], [ 127.103911744470295, 37.39469522175289 ], [ 127.10390225931917, 37.394695950777425 ], [ 127.103893001376036, 37.394697670720483 ], [ 127.103511525916417, 37.39478323634556 ], [ 127.10350271918638, 37.394784595463079 ], [ 127.103365877197035, 37.394806517955516 ], [ 127.103356621422137, 37.394809859680976 ], [ 127.103287164099726, 37.394847852191354 ], [ 127.10321770670717, 37.394885844660834 ], [ 127.103185093787715, 37.394903622691473 ], [ 127.102591966138547, 37.395227955777258 ], [ 127.102548066598331, 37.395250788959302 ], [ 127.102510034487608, 37.395269922954569 ], [ 127.102471662839363, 37.395288516618656 ], [ 127.102432838843924, 37.395306660149082 ], [ 127.102393562139426, 37.395324083241299 ], [ 127.102353040639755, 37.395339615251494 ], [ 127.102311386916426, 37.395352985778018 ], [ 127.102268600731179, 37.395364014617094 ], [ 127.10222524782823, 37.395373512198645 ], [ 127.102180987127156, 37.395379766884922 ], [ 127.102136271562458, 37.395383679304025 ], [ 127.102091325796792, 37.395384348249799 ], [ 127.102046600838619, 37.395381232729925 ], [ 127.102002211430076, 37.395375684168869 ], [ 127.101959284241858, 37.395365719378091 ], [ 127.101894773160311, 37.395345231025622 ], [ 127.101875381322259, 37.395369484774875 ], [ 127.10182046520373, 37.395345834687589 ], [ 127.101781927367512, 37.395324603427859 ], [ 127.10174575762602, 37.395300757206201 ], [ 127.101711164024522, 37.395273215478461 ], [ 127.101719958010563, 37.395262215649922 ], [ 127.101697912243409, 37.395244033835695 ], [ 127.101676425986341, 37.395221977180938 ], [ 127.101658211861192, 37.395197755316389 ], [ 127.101641916374021, 37.395172630809853 ], [ 127.101626975468434, 37.395147054646962 ], [ 127.101613276092834, 37.395120936822394 ], [ 127.101601044347163, 37.395094457348186 ], [ 127.101590280110415, 37.395067526123391 ], [ 127.101580757759365, 37.39504032354224 ], [ 127.101572816084627, 37.395012849318384 ], [ 127.101566229223408, 37.394985103643243 ], [ 127.101561110104825, 37.394957086421492 ], [ 127.101559265854718, 37.394928976327336 ], [ 127.101559454354202, 37.394900864513374 ], [ 127.101559542855966, 37.394882483741235 ], [ 127.101551064931769, 37.394876364014294 ], [ 127.10155123403662, 37.394833655780296 ], [ 127.101552984045696, 37.394790856107143 ], [ 127.101556315195666, 37.394748145197504 ], [ 127.101558436082428, 37.394729492401126 ], [ 127.101468363721878, 37.394602570559655 ], [ 127.101466915466133, 37.394600499450142 ], [ 127.101368489916027, 37.394459051223592 ], [ 127.101282319573315, 37.394336126444358 ], [ 127.101246860371063, 37.394285537351045 ], [ 127.10110959489144, 37.394089610261872 ], [ 127.101096788539593, 37.39414070857989 ], [ 127.100992229438077, 37.393980055559503 ], [ 127.100989363944663, 37.393982256445881 ], [ 127.100988949071734, 37.393984500321487 ], [ 127.100961936890869, 37.394130190087786 ], [ 127.101003320695227, 37.394169259316087 ], [ 127.100961689339996, 37.394370220605168 ], [ 127.100923577250569, 37.394337311553684 ], [ 127.100881305053491, 37.394557780314315 ], [ 127.100876157516112, 37.394576462672774 ], [ 127.100859568555336, 37.394636718447742 ], [ 127.100859568567216, 37.394636727457915 ], [ 127.100859568567202, 37.394636727457872 ], [ 127.100859141501985, 37.394638295582055 ], [ 127.100858242140021, 37.394641386817746 ], [ 127.100848495677411, 37.394675174043009 ], [ 127.100765820637008, 37.394992986254969 ], [ 127.100741534275826, 37.395091046029755 ], [ 127.10071743217452, 37.395191862747865 ], [ 127.100690110785649, 37.3952921595709 ], [ 127.100629293981157, 37.395495443391113 ] ], [ [ 127.100010673436273, 37.407728552720904 ], [ 127.100037553634237, 37.407735756447394 ], [ 127.100050690040732, 37.407736015804637 ], [ 127.100045356309209, 37.407742732793352 ], [ 127.099942972679841, 37.408005895722027 ], [ 127.09991593584941, 37.407991267761197 ], [ 127.099906116659099, 37.407971075230563 ], [ 127.099906127930524, 37.407971057200939 ], [ 127.099869059505579, 37.407894691184204 ], [ 127.099883786040508, 37.407798009292236 ], [ 127.099903399877476, 37.407750563669502 ], [ 127.099922293121608, 37.407704884627599 ], [ 127.100010673436273, 37.407728552720904 ] ], [ [ 127.117008343936917, 37.402105168173414 ], [ 127.117008239194007, 37.40203691651427 ], [ 127.117008343936917, 37.402105168173406 ], [ 127.117009138752579, 37.402623069846094 ], [ 127.117008343936917, 37.402105168173414 ] ], [ [ 127.100520698566527, 37.407805929200762 ], [ 127.10054762224118, 37.407691640235214 ], [ 127.100551991528022, 37.407673057695483 ], [ 127.100577455009699, 37.407565031981449 ], [ 127.100624632259112, 37.407572245598288 ], [ 127.100698629888669, 37.407566975696888 ], [ 127.100689131526678, 37.40757607488149 ], [ 127.10067229843645, 37.407599055810969 ], [ 127.100602169769402, 37.40769473907006 ], [ 127.100566304879052, 37.40774368509453 ], [ 127.100563023936829, 37.407748165875624 ], [ 127.100526234455174, 37.40779836506961 ], [ 127.100520721109078, 37.407805893141365 ], [ 127.100520698596171, 37.40780595172604 ], [ 127.100520698566527, 37.407805929200762 ] ], [ [ 127.100634470684426, 37.407152509612132 ], [ 127.100726303371687, 37.407165001721516 ], [ 127.100728133540386, 37.407161775384239 ], [ 127.100761714610471, 37.407166314512899 ], [ 127.100761798321557, 37.40716983740225 ], [ 127.100726303383567, 37.407165010731653 ], [ 127.100634470684426, 37.407152509612132 ] ], [ [ 127.100780647987648, 37.407134438810523 ], [ 127.100764903009505, 37.407151643349977 ], [ 127.100763887931777, 37.407152752447601 ], [ 127.100780647987648, 37.407134438810523 ] ], [ [ 127.110489675904589, 37.406607680833439 ], [ 127.11056784948606, 37.406539041693222 ], [ 127.11058352625605, 37.406523169409816 ], [ 127.110601009792944, 37.406507025153608 ], [ 127.110615222277545, 37.406493947356282 ], [ 127.110629321809412, 37.406480869661436 ], [ 127.110643421205694, 37.406467701863768 ], [ 127.110657407649285, 37.406454534168596 ], [ 127.110671394218727, 37.406441456572949 ], [ 127.110685267574098, 37.406428198877563 ], [ 127.110699141055363, 37.406415031281725 ], [ 127.110713014531726, 37.406401863684188 ], [ 127.110726774924828, 37.406388606088214 ], [ 127.110740535313084, 37.406375348490606 ], [ 127.110754295696466, 37.406362090891349 ], [ 127.110767943127428, 37.406348833394873 ], [ 127.110781477475143, 37.406335485899987 ], [ 127.110795011948937, 37.406322228504671 ], [ 127.11080854628706, 37.406308881006694 ], [ 127.110821967672891, 37.406295533611498 ], [ 127.110835389053975, 37.406282186214739 ], [ 127.110844185998388, 37.406273258054931 ], [ 127.110865050381662, 37.406251974860325 ], [ 127.110930118607286, 37.406181455469152 ], [ 127.110990100021326, 37.406108147611562 ], [ 127.111041169380925, 37.406042326384323 ], [ 127.111091946990044, 37.406241583364391 ], [ 127.111069395676992, 37.406267823732215 ], [ 127.111036355179692, 37.406304345357029 ], [ 127.111002184125638, 37.406340147209065 ], [ 127.110967221750244, 37.406375499277175 ], [ 127.110931807158209, 37.406410581449421 ], [ 127.110896279323498, 37.406445483513053 ], [ 127.110860299140882, 37.406480025579079 ], [ 127.110823867264727, 37.40651465815278 ], [ 127.110787322276309, 37.406549200718317 ], [ 127.110750212122184, 37.406583473490763 ], [ 127.110713892701014, 37.406617835622328 ], [ 127.11067904287863, 37.406653097398497 ], [ 127.11065219325917, 37.406675196994939 ], [ 127.110489675904589, 37.406607680833439 ] ], [ [ 127.109242775955209, 37.404037422682563 ], [ 127.109243783618055, 37.404741293164925 ], [ 127.109018570314518, 37.40466202878946 ], [ 127.108792746737592, 37.404629707316083 ], [ 127.108567023480603, 37.404588375189945 ], [ 127.108340182661252, 37.404555242860823 ], [ 127.108339444254611, 37.404035088677624 ], [ 127.109242775955209, 37.404037422682563 ] ], [ [ 127.101903228320182, 37.397823734009997 ], [ 127.102135381395783, 37.397823566198475 ], [ 127.101889721313512, 37.397823745475897 ], [ 127.101903228320182, 37.397823734009997 ] ], [ [ 127.101895381391401, 37.397655908768982 ], [ 127.101895381383969, 37.397655903192742 ], [ 127.101920973760983, 37.397631532629056 ], [ 127.101895381391401, 37.397655908768982 ] ], [ [ 127.102281707570413, 37.397300941017548 ], [ 127.102261044897162, 37.397321015199253 ], [ 127.102258586273578, 37.397323404042659 ], [ 127.102362000864048, 37.397222907810203 ], [ 127.102281707570413, 37.397300941017548 ] ], [ [ 127.103246838255643, 37.396846156654853 ], [ 127.103388287297363, 37.396846034881797 ], [ 127.102970095038174, 37.396846394412947 ], [ 127.103246838255643, 37.396846156654853 ] ], [ [ 127.094599704654414, 37.405542213769792 ], [ 127.094670856070053, 37.405675093189345 ], [ 127.094670683130317, 37.405845592006024 ], [ 127.094617847590058, 37.405882971596149 ], [ 127.094670671835615, 37.405845592014941 ], [ 127.094670844775379, 37.405675093198255 ], [ 127.094599704654414, 37.405542213769792 ] ], [ [ 127.098142071278332, 37.403528968493326 ], [ 127.0981005360387, 37.403568367697424 ], [ 127.0978543920112, 37.403801831818441 ], [ 127.097854369457039, 37.403801858867212 ], [ 127.097776440185015, 37.403874093493606 ], [ 127.097757398469113, 37.403892264410089 ], [ 127.097934729678414, 37.403722999759111 ], [ 127.097949732947754, 37.403708751514849 ], [ 127.098099540713761, 37.403567260264104 ], [ 127.098441792946986, 37.403242255021695 ], [ 127.098870237104265, 37.402836374996141 ], [ 127.098871039616427, 37.402836896887507 ], [ 127.098442743025871, 37.403243308428472 ], [ 127.098321793075414, 37.403358079474877 ], [ 127.098197628096557, 37.40347614172282 ], [ 127.098142071278332, 37.403528968493326 ] ], [ [ 127.097758529510472, 37.403893515897884 ], [ 127.097683851804462, 37.403964936903712 ], [ 127.098063884323821, 37.404385859876619 ], [ 127.097682720763288, 37.403963685415235 ], [ 127.097757398469113, 37.403892264410089 ], [ 127.097758529510472, 37.403893515897884 ] ], [ [ 127.09924417007268, 37.402482130415912 ], [ 127.099341293175812, 37.402389876430718 ], [ 127.099367801788375, 37.402364716221896 ], [ 127.09924417007268, 37.402482130415912 ] ], [ [ 127.094492546432988, 37.405656330282348 ], [ 127.094491685233152, 37.405654060406832 ], [ 127.094583820689422, 37.405895378301459 ], [ 127.094492546432988, 37.405656330282348 ] ], [ [ 127.099927829608475, 37.397143867384884 ], [ 127.099634787834802, 37.397239611428773 ], [ 127.099634789180058, 37.397239609398554 ], [ 127.099927829608475, 37.397143867384884 ] ], [ [ 127.099390360456653, 37.400882953733202 ], [ 127.09932549538226, 37.400949484193362 ], [ 127.099302152250246, 37.400968019330371 ], [ 127.099287203162135, 37.400979889031611 ], [ 127.099170898026443, 37.401110578058287 ], [ 127.099288971678178, 37.400976319555234 ], [ 127.099327331671191, 37.400945923670456 ], [ 127.09939218554068, 37.400879465299631 ], [ 127.0994520658613, 37.400809857464061 ], [ 127.099390360456653, 37.400882953733202 ] ], [ [ 127.100929782754392, 37.398710983044545 ], [ 127.100924880753169, 37.398736206547142 ], [ 127.100930713686111, 37.398706107776206 ], [ 127.100993866961744, 37.398380878706703 ], [ 127.100984500585469, 37.398429126877382 ], [ 127.100929782754392, 37.398710983044545 ] ], [ [ 127.10099409050278, 37.398379752861764 ], [ 127.100994080122419, 37.398379806320683 ], [ 127.100993866961744, 37.398380878706703 ], [ 127.10099409050278, 37.398379752861764 ] ], [ [ 127.101293888164221, 37.397451394461527 ], [ 127.101324848418585, 37.397398786577703 ], [ 127.101324821832947, 37.3973988368272 ], [ 127.101323582651176, 37.397401171499887 ], [ 127.101293888164221, 37.397451394461527 ] ], [ [ 127.101366762001987, 37.397259883051042 ], [ 127.10136703331851, 37.397260090055191 ], [ 127.10136703168844, 37.397260092390269 ], [ 127.101366762001987, 37.397259883051042 ] ], [ [ 127.101005517743729, 37.397198648264194 ], [ 127.100985663762131, 37.397215604033974 ], [ 127.100823187618914, 37.397328457471922 ], [ 127.101005517743729, 37.397198648264194 ] ], [ [ 127.100905441209036, 37.396330515052561 ], [ 127.10107708851335, 37.396322621935781 ], [ 127.10111048910575, 37.396387196538441 ], [ 127.1011281398862, 37.396326993912574 ], [ 127.10119644178053, 37.39596896334313 ], [ 127.101274048042697, 37.395559386836432 ], [ 127.10129303330443, 37.395569011673651 ], [ 127.10112223611155, 37.396474044426412 ], [ 127.101066985894249, 37.396795933262993 ], [ 127.101040083121404, 37.396948137218814 ], [ 127.100997754602844, 37.396964481194644 ], [ 127.100995158560139, 37.396965564595718 ], [ 127.100989176534952, 37.396968182569346 ], [ 127.100872618582059, 37.396874755280749 ], [ 127.100779007339028, 37.396711570109439 ], [ 127.100831633232247, 37.396539612391607 ], [ 127.100937913679999, 37.396376529588522 ], [ 127.100905441209036, 37.396330515052561 ] ], [ [ 127.101891184865949, 37.396846405127135 ], [ 127.10189550578022, 37.396843076716628 ], [ 127.101902071772855, 37.396838025462849 ], [ 127.10188379531121, 37.396852096799456 ], [ 127.101891184865949, 37.396846405127135 ] ], [ [ 127.101908525107618, 37.396833181537652 ], [ 127.101913128185501, 37.396829726744954 ], [ 127.101902071772855, 37.396838025462849 ], [ 127.101908525107618, 37.396833181537652 ] ], [ [ 127.101280556270368, 37.395527845839297 ], [ 127.101303319496708, 37.395405739169924 ], [ 127.101319685362185, 37.395313641676395 ], [ 127.101362004379268, 37.395120608641129 ], [ 127.101428573112557, 37.39516010695332 ], [ 127.101425731436805, 37.395656748542876 ], [ 127.101489427041727, 37.395743372299854 ], [ 127.101406357602499, 37.395779843483353 ], [ 127.101328637204787, 37.396273304595184 ], [ 127.101288582540178, 37.396215583376616 ], [ 127.101323454232926, 37.396026791435496 ], [ 127.101366742454246, 37.395797897229414 ], [ 127.101400276276564, 37.395622441396128 ], [ 127.101373575307349, 37.395585432252268 ], [ 127.101337119706997, 37.395601501089004 ], [ 127.101345193059416, 37.395557975274926 ], [ 127.101280556270368, 37.395527845839297 ] ], [ [ 127.101317803410652, 37.396364316188972 ], [ 127.10129975879957, 37.396723655927623 ], [ 127.101189671966651, 37.39674113834706 ], [ 127.10127624834027, 37.396282268845809 ], [ 127.10132910948515, 37.396288801643507 ], [ 127.101317803410652, 37.396364316188972 ] ], [ [ 127.101403929270717, 37.394886039145746 ], [ 127.101430057579961, 37.394917192176443 ], [ 127.101428912775148, 37.3951097129234 ], [ 127.101371317633323, 37.395075369847177 ], [ 127.101382394135683, 37.394997242531836 ], [ 127.101403929270717, 37.394886039145746 ] ], [ [ 127.100578414634796, 37.400977906429389 ], [ 127.100598693017687, 37.400945676097479 ], [ 127.100632305503837, 37.400893508128128 ], [ 127.100578414634796, 37.400977906429389 ] ], [ [ 127.100676346659583, 37.400822892942998 ], [ 127.100700913763177, 37.40078214652079 ], [ 127.100687942792788, 37.400803664596481 ], [ 127.100676346659583, 37.400822892942998 ] ], [ [ 127.10072502908335, 37.400741400472249 ], [ 127.100739336370509, 37.400714087752952 ], [ 127.100758944895574, 37.400681544703303 ], [ 127.10072502908335, 37.400741400472249 ] ], [ [ 127.100843778887182, 37.400522985162802 ], [ 127.100865932594829, 37.400479696047995 ], [ 127.100865835456133, 37.400479889167393 ], [ 127.100843778887182, 37.400522985162802 ] ], [ [ 127.100898184032815, 37.400415064448694 ], [ 127.100909336900145, 37.400392373187231 ], [ 127.100898467513801, 37.400414493200053 ], [ 127.100898184032815, 37.400415064448694 ] ], [ [ 127.100658263364195, 37.401241699243727 ], [ 127.100630531868489, 37.401281006684691 ], [ 127.100685881891039, 37.401202391890735 ], [ 127.100658263364195, 37.401241699243727 ] ], [ [ 127.100739310633685, 37.401122877668477 ], [ 127.100713048273391, 37.401162814606295 ], [ 127.100765233909272, 37.401082760806467 ], [ 127.100739310633685, 37.401122877668477 ] ], [ [ 127.100533079247697, 37.407558068283258 ], [ 127.100516019565106, 37.407554802882366 ], [ 127.100565858928718, 37.407473570892954 ], [ 127.100533079247697, 37.407558068283258 ] ], [ [ 127.112723185501338, 37.399396504208262 ], [ 127.112728973777578, 37.400027208388508 ], [ 127.112723584100863, 37.399666267358008 ], [ 127.112723185501338, 37.399396504208262 ] ], [ [ 127.109854960457639, 37.398642495410023 ], [ 127.110010633335094, 37.398674969385205 ], [ 127.110877445763322, 37.398848877494864 ], [ 127.11104881740205, 37.398881155378895 ], [ 127.111274523834481, 37.398921762022276 ], [ 127.111274462273627, 37.398956991722052 ], [ 127.111273615276048, 37.399150620386948 ], [ 127.111047903699244, 37.399106950301551 ], [ 127.109851117074243, 37.398875411028826 ], [ 127.109854340295882, 37.398682410895425 ], [ 127.109854960457639, 37.398642495410023 ] ], [ [ 127.113439656785275, 37.399242565779815 ], [ 127.113439954375977, 37.399442680663029 ], [ 127.113971778457611, 37.399443978113517 ], [ 127.114514218650683, 37.399445263027808 ], [ 127.114514691715215, 37.399760347084602 ], [ 127.113972249251304, 37.399759062176138 ], [ 127.113440422943256, 37.399757764731447 ], [ 127.113255091242891, 37.399757309297669 ], [ 127.113204434984539, 37.399716811536486 ], [ 127.113175375389844, 37.399693502724524 ], [ 127.113174939078959, 37.399399412241834 ], [ 127.113140897304987, 37.399291142522848 ], [ 127.11314077556699, 37.399209060279098 ], [ 127.113254409594177, 37.399222107757325 ], [ 127.113439656785275, 37.399242565779815 ] ], [ [ 127.116562782757171, 37.398775636436064 ], [ 127.116309234636859, 37.398771738182703 ], [ 127.115790844714226, 37.398763860858253 ], [ 127.115565753176654, 37.398757680972388 ], [ 127.115551635606877, 37.398757334182228 ], [ 127.114976868153406, 37.398734550814332 ], [ 127.114976432832265, 37.398445776276098 ], [ 127.114876388743752, 37.398457134900426 ], [ 127.114520524432038, 37.398454952677795 ], [ 127.114254404506028, 37.398426284148009 ], [ 127.114238593373443, 37.398426209119833 ], [ 127.114238283009954, 37.398218976207211 ], [ 127.114150334602982, 37.398162476334711 ], [ 127.114149548798252, 37.397637366114949 ], [ 127.114147692367794, 37.396396761498551 ], [ 127.114227440366122, 37.396332983806012 ], [ 127.115053429070713, 37.396332193629583 ], [ 127.115188907312572, 37.396305033047007 ], [ 127.116591980784577, 37.396303675975517 ], [ 127.116615499265009, 37.396322304081018 ], [ 127.116616833381258, 37.397194754804175 ], [ 127.116583297585066, 37.397420040963702 ], [ 127.116584540741783, 37.39823320489554 ], [ 127.116594592130028, 37.39823328521549 ], [ 127.11667479214735, 37.398169775756877 ], [ 127.11667530428798, 37.398504501932408 ], [ 127.116675790932774, 37.39882255935742 ], [ 127.116562851895367, 37.398820867264483 ], [ 127.116562782757171, 37.398775636436064 ] ], [ [ 127.10948075631309, 37.398610040754384 ], [ 127.108356733013096, 37.398392565792037 ], [ 127.108413198416116, 37.3983908028342 ], [ 127.108469550752773, 37.398388949850293 ], [ 127.108526016278446, 37.398387276939864 ], [ 127.108582483980427, 37.398387135724292 ], [ 127.108638954118661, 37.398388706406138 ], [ 127.108695200825622, 37.398391989190053 ], [ 127.108751337040886, 37.398396983973996 ], [ 127.1088071368968, 37.39840369096305 ], [ 127.108862600525626, 37.398412200258875 ], [ 127.108917614738445, 37.398422331762099 ], [ 127.108972179538512, 37.398434085473191 ], [ 127.109480567638727, 37.398557241509359 ], [ 127.109482254993083, 37.399024956292017 ], [ 127.109481507524436, 37.398818804995344 ], [ 127.10948075631309, 37.398610040754384 ] ], [ [ 127.113924489968625, 37.398180080809063 ], [ 127.113844400550391, 37.398243588298833 ], [ 127.113213084830264, 37.39823968124832 ], [ 127.11313359636037, 37.398175784313246 ], [ 127.113131787636291, 37.396956083267376 ], [ 127.113165510112168, 37.396849821860819 ], [ 127.11316479937399, 37.396370663169002 ], [ 127.113244548179168, 37.396306886137737 ], [ 127.113841848276792, 37.396306320276942 ], [ 127.113921786560752, 37.396369855923929 ], [ 127.113924489968625, 37.398180080809063 ] ], [ [ 127.114633619533052, 37.403294728956773 ], [ 127.114469195771605, 37.403233797443526 ], [ 127.114301280906403, 37.403179446427217 ], [ 127.114130101056077, 37.403131855880517 ], [ 127.113956220894124, 37.403091025252387 ], [ 127.11377997960922, 37.403057224513041 ], [ 127.113601828925496, 37.403030453223963 ], [ 127.113422220699377, 37.403010801050229 ], [ 127.11337466691765, 37.403007512296533 ], [ 127.113372728757554, 37.401703567627706 ], [ 127.113861312558299, 37.401704906460019 ], [ 127.113964770069089, 37.401707421058653 ], [ 127.114065747609075, 37.401713091474306 ], [ 127.114167978300884, 37.401725968717237 ], [ 127.115736405050754, 37.401960889999508 ], [ 127.11582677577573, 37.401972605945666 ], [ 127.116228918980738, 37.402020240512684 ], [ 127.116229465605016, 37.40237884329126 ], [ 127.116229799078042, 37.402597608995642 ], [ 127.116568624923119, 37.40259727980218 ], [ 127.116647684286164, 37.402597202850664 ], [ 127.116647962735911, 37.40277920725817 ], [ 127.116568903181658, 37.402779284210176 ], [ 127.116569139427838, 37.402933807750159 ], [ 127.116587119183976, 37.40294811636452 ], [ 127.116625368096379, 37.403070526831286 ], [ 127.116619956837198, 37.403150902476035 ], [ 127.116608568825768, 37.403237320725346 ], [ 127.116591306786006, 37.403323113979809 ], [ 127.116568509114487, 37.403408011603752 ], [ 127.116540062712232, 37.403491923602715 ], [ 127.116506192759886, 37.403574399247098 ], [ 127.116466899241559, 37.40365543853239 ], [ 127.116421618524257, 37.403735762811387 ], [ 127.116399533838177, 37.403770022768327 ], [ 127.115583571221961, 37.40336049134816 ], [ 127.115361837165565, 37.403641640941657 ], [ 127.114949960089064, 37.403435794874099 ], [ 127.114793987238698, 37.403362061319861 ], [ 127.114633619533052, 37.403294728956773 ] ], [ [ 127.113166948275918, 37.401701960083749 ], [ 127.113167534338004, 37.401564104472499 ], [ 127.113167284424293, 37.401700157739484 ], [ 127.113166948275918, 37.401701960083749 ] ], [ [ 127.115099008285824, 37.399969002645037 ], [ 127.11523552637729, 37.399953013592473 ], [ 127.115237013494209, 37.400937189335195 ], [ 127.115238244575878, 37.401751884538101 ], [ 127.114196917595535, 37.401592771357244 ], [ 127.114086779767177, 37.401578910551983 ], [ 127.113975297734825, 37.401572439232879 ], [ 127.113863708430301, 37.401569752167063 ], [ 127.113372527877374, 37.401568415800519 ], [ 127.113370212762973, 37.400010745716692 ], [ 127.113387537056624, 37.399964867730397 ], [ 127.115099008285824, 37.399969002645037 ] ], [ [ 127.113180295148126, 37.40232427743021 ], [ 127.11313477970306, 37.402324320403814 ], [ 127.113134541591734, 37.402620663910049 ], [ 127.113134779609524, 37.402324257332957 ], [ 127.113180295148126, 37.40232427743021 ] ] ] } }
]
}
